addressID,address1,city,state,zip
724326,21323 North 64th Avenue,Glendale,AZ,85308
637665,1931 West Deane Street,Fayetteville,AR,72703
149731,24 Amherst Drive,Manchester,CT,06042
414956,103 Edgewater Road,Severna Park,MD,21146
333487,3718 Bay Tree Road,Lynn Haven,FL,32444
552063,2315 Kimberly Drive,Nashville,TN,37214
730050,8300 Highway 100,Nashville,TN,37221
993886,1304 Northern Hills Road,Norman,OK,73071
133045,4 Glen Circle,Glen Burnie,MD,21060
515060,303 Addison Drive,Glen Burnie,MD,21060
448206,2032 Gorgas Street,Montgomery,AL,36106
685930,211 Oak Street,Manchester,CT,06040
874951,112 3rd Street Northeast,Washington,DC,20002
527315,4 Old Colony Way,Yarmouth,MA,02664
676317,2829 Cambridge Court,Oklahoma City,OK,73116
135398,104 Greenwood Drive,Manchester,CT,06042
461666,2787 West Blackstone Crossing,Fayetteville,AR,72704
183514,11 Water Street,Holbrook,MA,02343
658150,125 13th Street Northeast,Washington,DC,20002
911819,2269 Eastern Boulevard,Montgomery,AL,36117
617442,38 Devon Drive,Manchester,CT,06040
465877,2713 Mitscher Road,Washington,DC,20373
711230,1820 22nd Street Southeast,Washington,DC,20020
173903,2685 California Street,Mountain View,CA,94040
800068,260 Park Avenue,Pooler,GA,31322
329185,6123 West Marlette Avenue,Glendale,AZ,85301
721475,5005 North Miller Avenue,Oklahoma City,OK,73112
860485,1010 Hillcrest Drive,Fort Collins,CO,80521
113120,10980 Splendor Loop,Anchorage,AK,99577
779971,7404 West Crest Lane,Glendale,AZ,85310
938132,949 South Lawrence Street,Montgomery,AL,36104
713577,200 Hialeah Drive,Glen Burnie,MD,21060
452324,10632 Admiral Court,Oklahoma City,OK,73162
895076,306 East Lafayette Street,Fayetteville,AR,72701
231709,535 Saddlewood Lane,Montgomery,AL,36109
286418,731 Mumford Street,Anchorage,AK,99508
176319,4 Orchard Street,Manchester,CT,06040
505730,105 Hunt Club Court,Savannah,GA,31406
614073,721 Bay Ridge Avenue,Annapolis,MD,21403
736968,5575 South Dakota Avenue Northeast,Washington,DC,20011
571482,3345 Archie Watkins Road,Farmington,AR,72730
176147,826 Webster Street,Hayward,CA,94544
977152,1911 East 58th Avenue,Anchorage,AK,99507
814278,37 East Broad Street,Savannah,GA,31401
181681,108 Chalmers Avenue,Glen Burnie,MD,21061
121848,57 Birdie Lane,Tewksbury,MA,01876
319815,5526 Thalman Drive,Brentwood,TN,37027
884604,25 Edwards Street,Manchester,CT,06042
365735,8671 West 78th Circle,Arvada,CO,80005
587546,4300 Soquel Drive,Soquel,CA,95073
568030,3620 Colmar Drive,Louisville,KY,40211
885212,3609 Meadow Drive,Nashville,TN,37215
617773,200 Edgewood Way,Louisville,KY,40243
340813,1636 Briarview Court,Severn,MD,21144
660748,6342 West Wheeler Road,Fayetteville,AR,72704
310634,91 85th Avenue,Fayetteville,AR,72704
182150,7758 Betty Louise Drive,Panama City,FL,32404
177298,1114 Barley Drive,Montgomery,AL,36111
913922,45430 Lauri Lane,Oakhurst,CA,93644
163440,5650 West 60th Avenue,Arvada,CO,80003
338522,4600 Ritchie Highway,Baltimore,MD,21225
499909,6718 Keithley Road,Panama City,FL,32404
103471,7085 Gladiola Street,Arvada,CO,80004
331553,508 Baker Street,Norman,OK,73072
914267,159 Adams Street,Manchester,CT,06040
573065,680 Quintana Road,Morro Bay,CA,93442
273359,6763 Depew Street,Arvada,CO,80003
257767,4339 Benning Road Northeast,Washington,DC,20019
551226,1353 West 27th Avenue,Anchorage,AK,99503
726062,1811 1st Street Northwest,Washington,DC,20001
479407,3777 Mowry Avenue,Fremont,CA,94538
431023,3325 Dix Street Northeast,Washington,DC,20019
649847,208 Kinnaird Lane,Louisville,KY,40243
194230,200 Pheasant Avenue,Louisville,KY,40118
494791,5815 West Del Lago Circle,Glendale,AZ,85308
181481,10 Bramblebush Drive,Barnstable,MA,02635
288674,10484 West 82nd Avenue,Arvada,CO,80005
467639,44 Downey Drive,Manchester,CT,06040
500226,25 Cliffside Drive,Manchester,CT,06042
151687,3207 Art Hall Lane,Pasadena,MD,21122
287369,534 Hamilton Street Northeast,Washington,DC,20011
899361,9920 West 81st Avenue,Arvada,CO,80005
548081,1772 150th Avenue,San Leandro,CA,94578
130207,1156 Greenhill Road,Arnold,MD,21012
153851,17794 West 77th Lane,Arvada,CO,80007
761112,1637 Acre Circle,Panama City Beach,FL,32407
328861,2064 West Columbia Way,Hanford,CA,93230
437314,68 Princeton Street,Manchester,CT,06042
687884,56 Channing Drive,Manchester,CT,06040
346887,4408 Bonaparte Boulevard,Midwest City,OK,73110
243723,39 Newhall Street,Lynn,MA,01902
595277,3164 West Woodfield Way,Fayetteville,AR,72704
279357,1433 Bretton View Road,Annapolis,MD,21409
337014,6817 Brentwood Street,Arvada,CO,80004
707315,1817 Beech Street,Louisville,KY,40210
182031,7802 Titan Court,Pasadena,MD,21122
644704,32512 Christine Drive,Union City,CA,94587
765960,14213 Doc Hawley Street,Louisville,KY,40245
385592,1914 Stratford Downs Drive,Montgomery,AL,36117
876279,83 Oakdale Road,Newton,MA,02459
192471,5408 Iris Street,Arvada,CO,80002
150030,402 Carlton Place,Goodlettsville,TN,37072
469633,222 Plymouth Street,Middleborough,MA,02346
832533,60 Willow Lakes Drive,Savannah,GA,31419
542004,1823 Dinger Road,Annapolis,MD,21402
322117,81 Lyness Street,Manchester,CT,06040
763367,491 Arabian Way,Grand Junction,CO,81504
594276,5119 Marla Drive,Panama City,FL,32404
430789,735 West Treadwell Street,Fayetteville,AR,72701
841791,7374 West Walden Drive,Littleton,CO,80128
945398,721 Vermont 5A,Westmore,VT,05860
235311,2802 US Highway 98,Mexico Beach,FL,32456
172466,7113 North 69th Avenue,Glendale,AZ,85303
171892,1650 North Sang Avenue,Fayetteville,AR,72703
922943,218 Turtle Cove,Panama City Beach,FL,32413
680404,5708 Beverly Street,Savannah,GA,31405
539951,1079 East Kentucky Street,Louisville,KY,40204
362217,7450 Wade Circle,Anchorage,AK,99518
543928,9515 West 74th Avenue,Arvada,CO,80005
496352,1920 Bladensburg Road Northeast,Washington,DC,20002
922610,8070 Holland Court,Arvada,CO,80005
387785,74 Heard Street,Chelsea,MA,02150
879217,2052 East 42nd Street,Savannah,GA,31404
601387,3125 Willow Lane Drive,Montgomery,AL,36109
945552,6740 Dickerson Drive,Anchorage,AK,99504
167192,11 Meeting Place Circle,Boxford,MA,01921
702803,529 Barr Hill Road,Greensboro,VT,05841
821456,20250 North 67th Avenue,Glendale,AZ,85308
375671,445 South Potomac Circle,Aurora,CO,80012
253765,3610 Story Road,San Jose,CA,95127
107170,618 Amberjack Drive,Panama City,FL,32408
838898,3541 North Road,Maidstone,VT,05905
218337,5124 Williston Road,Williston,VT,05495
596780,4039 Pipeline Road,Panama City,FL,32404
418434,345 Buckland Hills Drive,Manchester,CT,06042
497677,3500 South College Avenue,Fort Collins,CO,80525
135736,1711 8th Street Northwest,Washington,DC,20001
750412,337 South Drive,Severna Park,MD,21146
571863,4770 Balboa Way,Fremont,CA,94536
738855,2 Spencer Street,Lexington,MA,02420
389521,5514 West Altadena Avenue,Glendale,AZ,85304
109794,2507 R Street Southeast,Washington,DC,20020
866894,8848 North New World Drive,Glendale,AZ,85302
657876,4225 Eatons Creek Road,Nashville,TN,37218
842820,475 Maple Street,Holyoke,MA,01040
712517,1215 Joseph Avenue,Nashville,TN,37207
215130,16 Pine Hill Street,Manchester,CT,06042
371372,2 Addison Place,Bloomingdale,GA,31302
680079,7041 Coe Road,Panama City,FL,32404
103676,450 C Street,Hayward,CA,94541
692882,720 East Muhammad Ali Boulevard,Louisville,KY,40202
937936,64 Church Street,Hardwick,MA,01031
549926,4409 Star Jasmine Court,Bakersfield,CA,93304
824105,5 Westlund Avenue,Auburn,MA,01501
641340,4920 Quonset Drive,Sacramento,CA,95820
297552,514 East 38th Street,Savannah,GA,31401
287370,2347 Glen Eagle Drive,Northfield,KY,40222
151129,117 Adelaide Road,Manchester,CT,06040
397030,1222 Arcade Boulevard,Sacramento,CA,95815
677555,481 East Redbud Lane,Fayetteville,AR,72703
266161,632 Belmar Drive,Edmond,OK,73025
806835,14 School Street,Medway,MA,02053
568151,13066 North 56th Avenue,Glendale,AZ,85304
987512,9223 Elgin Circle,Anchorage,AK,99502
521797,240 54th Avenue North,Nashville,TN,37209
970900,8513 Pipit Court,Montgomery,AL,36117
324107,1021 North Center Avenue,Panama City,FL,32401
487820,1015 Castle Road,Edmond,OK,73034
265171,4303 Ashleycreek Court,Louisville,KY,40241
117301,6041 North 72nd Lane,Glendale,AZ,85303
474451,7024 Johnny Mercer Boulevard,Savannah,GA,31410
176184,1333 Farragut Street Northwest,Washington,DC,20011
539227,6435 West Hillsborough Avenue,Tampa,FL,33634
771344,13005 Mills Edge Court,Louisville,KY,40272
490403,780 South Wilmington Avenue,Fayetteville,AR,72701
906236,6601 West Ocotillo Road,Glendale,AZ,85301
425853,40 Oliver Road,Manchester,CT,06042
936934,1219 Carleton Street,Berkeley,CA,94702
350443,208 Towne Lake Way,Pooler,GA,31322
291566,6140 Fenton Street,Arvada,CO,80003
129267,123 Elizabeth Drive,Manchester,CT,06042
578049,8507 Lorento Street,Panama City Beach,FL,32408
303209,17480 Beaujolais Circle,Anchorage,AK,99577
149155,349 North Sabine Pass Road,Fayetteville,AR,72704
996171,8007 Kendrick Crossing Lane,Louisville,KY,40291
380636,57 Pierpoint Avenue,Rutland,VT,05701
551629,8 Linden Circle,Somerville,MA,02143
292924,6412 Lenawee Street,Panama City,FL,32404
528370,2894 Music Avenue,Grand Junction,CO,81506
983729,3 Carvel Circle,Edgewater,MD,21037
520770,24020 Reese Road,Anchorage,AK,99567
487674,4717 Forest Hills Drive,Noble,OK,73068
243646,6228 West Larkspur Drive,Glendale,AZ,85304
773170,82 Queen Court,Manchester,CT,06040
577098,207 High Street,Manchester,CT,06040
813040,1710 Massachusetts Avenue Southeast,Washington,DC,20003
365555,2577 Rhode Island Avenue Northeast,Washington,DC,20018
974745,210 Lacross Lane,Westmore,VT,05860
487027,4121 Northwest 31st Street,Oklahoma City,OK,73112
533612,4511 43rd Place Northwest,Washington,DC,20016
122190,3752 Roswell Place,Montgomery,AL,36116
388008,1806 Boscobel Street,Nashville,TN,37206
730382,119 Captain Chase Road,Dennis,MA,02639
596557,9306 Taylorsville Road,Louisville,KY,40299
574440,1606 Aaron Street,Montgomery,AL,36104
640506,12816 West 65th Way,Arvada,CO,80004
827945,7401 West Arrowhead Clubhouse Drive,Glendale,AZ,85308
341722,61 Cubles Drive,Brimfield,MA,01010
471519,3141 North Lancaster Lane,Fayetteville,AR,72703
784069,1326 U.S. 80,Garden City,GA,31408
509344,3384 North Southridge Drive,Fayetteville,AR,72703
630783,826 South Hancock Street,Louisville,KY,40203
362378,2909 Minnesota Avenue,Lynn Haven,FL,32444
693054,512 Danley Court,Nashville,TN,37013
989994,5706 Worchester Drive,Montgomery,AL,36116
751059,37675 Fremont Boulevard,Fremont,CA,94536
579885,3079 North Bentley Ridge,Fayetteville,AR,72704
818931,881 Main Street,Manchester,CT,06040
894401,3505 Albee Drive,Nashville,TN,37076
120446,89 Barrensdale Drive,Severna Park,MD,21146
209297,3101 Penland Parkway,Anchorage,AK,99508
593716,6420 Via Baron,Rancho Palos Verdes,CA,90275
168020,8188 Poinsett Terrace,Pasadena,MD,21122
538642,3140 Commander Drive,Louisville,KY,40220
366614,6215 Sheridan Boulevard,Arvada,CO,80003
818022,5224 Wasena Avenue,Baltimore,MD,21225
263645,226 Tranquility Lane,Saint Albans Town,VT,05488
923627,14347 Corvallis Street,San Leandro,CA,94579
497940,109 Cambridge Station Road,Louisville,KY,40223
210870,711 Parker Street,East Longmeadow,MA,01028
355998,416 Waverly Avenue,Baltimore,MD,21225
534024,4050 Bryce Road,Nashville,TN,37211
360975,3823 Shannon Run Trail,Louisville,KY,40299
530136,4130 Legation Street Northwest,Washington,DC,20015
762233,8935 Cole Drive,Arvada,CO,80004
332991,915 Arkansas Avenue,Lynn Haven,FL,32444
119343,265 Slater Street,Manchester,CT,06042
629146,243 McKee Street,Manchester,CT,06040
852961,7645 Marshall Street,Arvada,CO,80003
606147,1238 Roanwood Way,Concord,CA,94521
558311,2729 East 14th Street,Panama City,FL,32401
950793,313 Post Road,Rutland,VT,05701
538610,6275 Eric Lane,Montgomery,AL,36116
771159,124 Rod Key Street,Lyndon,VT,05851
517371,2185 Howe Pond Road,Readsboro,VT,05350
774899,8 Chandler Street,Plymouth,MA,02360
786638,646 Clinton Street,Montgomery,AL,36108
829214,5073 West 65th Place,Arvada,CO,80003
118118,12245 West 71st Place,Arvada,CO,80004
309013,1002 Highland Avenue,Louisville,KY,40204
574753,2849 Leawood Drive,Anchorage,AK,99502
740413,1 Tanaquay Court,Savannah,GA,31411
364152,34 Free Street,Hingham,MA,02043
547323,7910 West Krall Street,Glendale,AZ,85303
408034,2362 Acushnet Avenue,New Bedford,MA,02745
160238,217 West Congress Street,Savannah,GA,31401
501404,410 West 89th Avenue,Anchorage,AK,99515
773583,439 Crestmont Drive,Oakland,CA,94619
412998,6029 Wright Street,Arvada,CO,80004
991047,534 North 31st Street,Louisville,KY,40212
258046,3905 Lyceum Avenue,Los Angeles,CA,90066
725985,318 Lydall Street,Manchester,CT,06042
260764,4510 Eastern Avenue Northeast,Washington,DC,20018
236623,3014 R Street Northwest,Washington,DC,20007
440879,93 Marble Hill Road,Waitsfield,VT,05673
361514,407 Morse Street Northeast,Washington,DC,20002
203592,19 Euston Street,Brookline,MA,02446
816716,10383 Eagle River Lane,Anchorage,AK,99577
436486,1822 North Grand Avenue,Pueblo,CO,81003
487194,210 Seaman,McCrory,AR,72101
595766,7025 Queen Street,Arvada,CO,80004
587530,334 North Cove Boulevard,Panama City,FL,32401
884334,2803 River Drive,Thunderbolt,GA,31404
274499,702 East 53rd Street,Savannah,GA,31405
370916,104 White Street,Manchester,CT,06042
359121,102 Old Depot Road,Farmington,AR,72730
593310,3311 Wiley Post Loop,Anchorage,AK,99517
986303,134 Butternut Road,Manchester,CT,06040
137514,1 Logan Circle Northwest,Washington,DC,20005
114242,5161 Jefferson Boulevard,Louisville,KY,40219
543399,9209 Eupora Court,Jeffersontown,KY,40299
564783,11140 West 60th Avenue,Arvada,CO,80004
627459,11300 Lillian Lane,Anchorage,AK,99515
205806,11507 East Neville Avenue,Mesa,AZ,85209
477773,404 Ramble Wood Circle,Nashville,TN,37221
427632,85 Hokum Rock Road,Dennis,MA,02638
415494,6293 Braun Circle,Arvada,CO,80004
222085,1612 Whitemarsh Way,Savannah,GA,31410
818176,24 Norman Street,Salem,MA,01970
940980,75 Calfoster Drive,Wolcott,VT,05680
229881,517 West 33rd Street,Savannah,GA,31415
507487,2042 High Street,Oakland,CA,94601
479716,2355 Pearl Point,Fayetteville,AR,72701
683144,913 Fallview Trail,Nashville,TN,37211
715187,100 East Joyce Boulevard,Fayetteville,AR,72703
455245,16303 Mateo Street,San Leandro,CA,94578
661891,612 E Street,Marysville,CA,95901
848492,4840 Reservoir Road Northwest,Washington,DC,20007
338405,4981 Shirley Way,Livermore,CA,94550
793759,24647 Patricia Court,Hayward,CA,94541
711729,3337 Woodpark Court,Montgomery,AL,36116
385555,107 West Canton Circle,Springfield,MA,01104
603812,803 Kay Lane,Lynn Haven,FL,32444
737527,8142 Mallard Shore Drive,Laurel,MD,20724
387400,2133 Boultier Street,Montgomery,AL,36106
648470,11150 Sun Valley Drive,Oakland,CA,94605
424417,1918 Spruce Street,Boulder,CO,80302
554501,1612 Beech Street,Louisville,KY,40211
807968,51 Bearing Circle,Port Wentworth,GA,31407
693733,1606 Trevilian Way,Louisville,KY,40205
367732,6521 North 65th Avenue,Glendale,AZ,85301
319369,5434 West Beck Lane,Glendale,AZ,85306
513907,1835 Pointer Lane,Fayetteville,AR,72701
208327,7911 Deronia Avenue,Louisville,KY,40222
923805,306 Rural Hill Court,Nashville,TN,37217
375599,5514 West Wedington Drive,Fayetteville,AR,72704
596046,901 North Lincoln Boulevard,Oklahoma City,OK,73104
573163,30 Curtis Road,Milton,MA,02186
952852,1149 Darwin Street,Savannah,GA,31415
212925,12330 Old Glenn Highway,Anchorage,AK,99577
922729,531 Bobbin Mill Road,Lunenburg,VT,05906
227479,4632 Vermont 15,Wolcott,VT,05680
768616,9805 Meadow Vale Drive,Louisville,KY,40242
818020,5688 Johnson Court,Arvada,CO,80002
686018,468 Raymond Drive,Ione,CA,95640
781693,24147 Clinton Court,Hayward,CA,94545
529342,91 Eldridge Street,Manchester,CT,06040
369291,1311 Northwest 98th Street,Oklahoma City,OK,73114
441859,16031 West 63rd Lane,Arvada,CO,80403
779395,32532 Jean Drive,Union City,CA,94587
125712,24 Haven Drive,Savannah,GA,31406
448099,84 Holbrook Street,North Adams,MA,01247
407247,7737 Wynlakes Boulevard,Montgomery,AL,36117
528289,525 Middle Turnpike West,Manchester,CT,06040
208453,4602 West Luke Avenue,Glendale,AZ,85301
303818,6902 West Sherri Jean Lane,Peoria,AZ,85382
696852,8421 Thomas Drive,Panama City,FL,32408
930223,32 Royal Drive,Louisville,KY,40214
191396,890 East Skyline Drive,Fayetteville,AR,72701
682830,103 Chevis Road,Savannah,GA,31419
624706,5337 West Wheeler Road,Fayetteville,AR,72704
153813,8501 Twin Gable Drive,Montgomery,AL,36116
109968,712 Wilsonwood Place,Nashville,TN,37206
515825,1259 Everett Avenue,Louisville,KY,40204
258497,101 Mustang Drive,San Luis Obispo,CA,93405
473366,7502 Kingman Street,Panama City Beach,FL,32408
361489,4188 Summerview Drive,Louisville,KY,40272
409286,6160 Norm Drive,Anchorage,AK,99507
194766,5805 Armada Drive,Carlsbad,CA,92008
443139,429 Patterson Street,Nashville,TN,37211
624248,38 Milford Street,Medway,MA,02053
522472,2315 Kezey Court,Crofton,MD,21114
632900,35 Pilgrim Lane,Manchester,CT,06040
404086,2868 Peak Road,Wheelock,VT,05851
347934,9428 North 65th Drive,Glendale,AZ,85302
690539,833 Williamson Road,Montgomery,AL,36109
408138,5136 Gaines Street,Oklahoma City,OK,73135
454372,13 Riverview Avenue,Groton,CT,06340
413752,27 Cabbage Crossing,Savannah,GA,31411
649156,6276 Devinney Circle,Arvada,CO,80004
900518,6100 Bullard Drive,Oakland,CA,94611
122065,154 Boca Lagoon Drive,Panama City Beach,FL,32408
223702,9346 West 66th Place,Arvada,CO,80004
509089,6286 West Louise Drive,Glendale,AZ,85310
410788,6373 West Golden Lane,Glendale,AZ,85302
638607,320 South Link Lane,Fort Collins,CO,80524
524649,125 John Street,Santa Cruz,CA,95060
480973,344 Island Road,Savannah,GA,31406
863445,501 Holly Avenue,Pooler,GA,31322
113945,2835 Southwest 78th Street,Oklahoma City,OK,73159
181042,13852 West 66th Place,Arvada,CO,80004
462007,8295 Moss Circle,Arvada,CO,80007
392443,707 Leaning Oaks Drive,Savannah,GA,31410
958001,6713 Holt Road,Nashville,TN,37211
255580,16820 Coronado Street,Anchorage,AK,99577
663842,5632 West Acoma Drive,Glendale,AZ,85306
495109,2721 Lindsay Avenue,Louisville,KY,40206
742397,122 Coral Drive,Panama City Beach,FL,32413
537517,2315 Chestnut Street,Montgomery,AL,36107
690688,15 Lakewood Drive,Thunderbolt,GA,31410
189253,5545 Saddlewood Lane,Brentwood,TN,37027
217662,2617 Truffula Circle,Norman,OK,73069
787813,5619 Clay Place Northeast,Washington,DC,20019
103526,163 Highwood Drive,Manchester,CT,06040
453509,514 Flower Lane,Alameda,CA,94502
205742,100 Fenwick Village Drive,Savannah,GA,31419
649190,17 Stratfield Avenue,Westfield,MA,01085
353923,1208 Elkader Court North,Nashville,TN,37013
619598,1 Kempf Drive,Easton,MA,02375
203213,5840 Eagle Circle,Montgomery,AL,36116
852698,7102 North 43rd Avenue,Glendale,AZ,85301
405819,509 Franklin Street Northeast,Washington,DC,20017
685380,10 Erick Road,Mansfield,MA,02048
559331,4408 Northwest 55th Street,Oklahoma City,OK,73112
813469,6404 West 82nd Drive,Arvada,CO,80003
404783,1505 Rosewood Avenue,Louisville,KY,40204
807421,135 Pond Road,Shelburne,VT,05482
504920,45 Baldridge Road,Annapolis,MD,21401
850659,23 North Hill Street,Nashville,TN,37210
463162,2075 Archer Drive,Fayetteville,AR,72701
292716,104 Lakeridge Drive,Panama City,FL,32405
802731,66 Ocala Drive,Nashville,TN,37013
596944,228 Common Street,Braintree,MA,02184
762746,202 Pepperbush Road,Louisville,KY,40207
113787,9740 Rhythm Road,Midwest City,OK,73130
449351,513 Habberton Road,Fayetteville,AR,72703
637347,202 Deer Run Trail,Manchester,CT,06042
845302,8700 Lillington Circle,Montgomery,AL,36117
152617,8496 Isles Court,Pasadena,MD,21122
330459,327 Idlewylde Drive,Louisville,KY,40206
176687,25800 Industrial Boulevard,Hayward,CA,94545
446984,18318 Pioneer Drive,Anchorage,AK,99577
568832,3354 Wilmington Road,Montgomery,AL,36105
647742,19448 Currant Drive,Edmond,OK,73012
748539,333 Saint Charles Avenue,Fayetteville,AR,72701
949622,7905 Old Heady Road,Louisville,KY,40299
644114,829 Dunbarton Road,Montgomery,AL,36117
207681,110 Allen Place,Farmington,AR,72730
157980,10400 Royal Oak Road,Oakland,CA,94605
733789,2917 Danzig Place,Louisville,KY,40245
271089,56 Gardner Street,Manchester,CT,06040
251634,3111 Gentilly Court,Montgomery,AL,36116
604495,14285 Wycliff Way,Magalia,CA,95954
128485,775 47th Street,Oakland,CA,94609
654106,3 Furman Place,Swanton,VT,05488
594575,3620 Bentfield Drive,Nashville,TN,37013
621532,1800 East 63rd Street,Savannah,GA,31404
386181,2324 North Briarwood Lane,Fayetteville,AR,72703
552070,1318 4th Street Southwest,Washington,DC,20024
952573,46 Sugarloaf Hill Road,Warren,VT,05674
865105,215 9th Street Northeast,Washington,DC,20002
400934,120 North Hurstbourne Parkway,Louisville,KY,40222
904842,1904 Baker Court,Panama City,FL,32401
387775,618 McLaws Street,Savannah,GA,31405
360886,8529 Old Harding Lane,Nashville,TN,37221
257098,287 Lawndale Drive,Nashville,TN,37211
806713,6021 Yarrow Street,Arvada,CO,80004
228893,664 Irving Street Northwest,Washington,DC,20010
941746,4316 Dover Road,Louisville,KY,40216
556254,1566 Wingate Park Court,Montgomery,AL,36117
649893,2306 Edinburgh Drive,Montgomery,AL,36116
713951,16 Ambassador Drive,Manchester,CT,06042
738976,7998 Chase Circle,Arvada,CO,80003
758536,840 Fontaine Road,Derby,VT,05829
287812,4316 Sunnybrook Drive,Montgomery,AL,36108
437738,6505 South Lagoon Drive,Panama City Beach,FL,32408
757513,3546 Rosa L Parks Avenue,Montgomery,AL,36105
816309,2572 Drake Street,Montgomery,AL,36108
810344,1145 Chaseway Drive,Pike Road,AL,36064
865404,2747 68th Avenue,Oakland,CA,94605
913809,6534 Benton Circle,Arvada,CO,80003
835902,512 North Center Avenue,Panama City,FL,32401
694395,412 Virginia Avenue,Louisville,KY,40222
335410,2511 Hearst Avenue,Berkeley,CA,94709
168922,171 Brickhill Circle,Pooler,GA,31322
754693,848 Vermont 14,Woodbury,VT,05650
466474,8820 Vaughn Road,Montgomery,AL,36117
312192,1233 Paradise Lane,Fayetteville,AR,72701
182409,9436 Briarlea Court,Montgomery,AL,36117
715295,122 Summer Street,Medford,MA,02155
810460,19 Keyes Drive,Peabody,MA,01960
101610,16205 Wind Crest Way,Edmond,OK,73013
743569,20370 California 116,Monte Rio,CA,95462
708148,2464 Windham Hill Road,Townshend,VT,05359
238879,412 Lakefront Drive,Panama City Beach,FL,32413
139855,18330 North 79th Avenue,Glendale,AZ,85308
722212,32 Prospect Street,Manchester,CT,06040
187390,5 Little Deer Road,Groton,VT,05046
760886,3951 Kimberly Street,Montgomery,AL,36116
464604,720 South River Landing Road,Edgewater,MD,21037
963030,560 Penstock Drive,Grass Valley,CA,95945
914901,1734 Tamarack Street Northwest,Washington,DC,20012
945439,2815 Blueridge Place,Anchorage,AK,99504
671201,3483 Canyon Creek Drive,San Jose,CA,95132
286731,1745 T Street Southeast,Washington,DC,20020
199729,2316 Northwest 113th Street,Oklahoma City,OK,73120
279566,184 Oak Street,Foxborough,MA,02035
788695,5938 Laguna Honda Street,Redding,CA,96001
868157,12 Saint Andrews Crossover,Severna Park,MD,21146
805276,37608 2nd Street,Fremont,CA,94536
280259,207 Spruce Street,Manchester,CT,06040
860497,328 17th Street,Paso Robles,CA,93446
229697,7100 Old Seward Highway,Anchorage,AK,99518
718671,28 Wilfred Road,Manchester,CT,06040
461293,12022 Town Park Circle,Anchorage,AK,99577
793710,10914 Oak Harbor Drive,Louisville,KY,40299
289961,6514 West Golden Lane,Glendale,AZ,85302
881085,1983 Reidsville Street,Annapolis,MD,21401
717048,87 Horseshoe Drive,West Windsor,VT,05037
151050,8934 Arrowrock Trail,Smartsville,CA,95977
186340,5606 Olde Wadsworth Boulevard,Arvada,CO,80002
661577,1987 Boxer Court,San Lorenzo,CA,94580
975028,98 Lincoln Street,Revere,MA,02151
301279,353 O Street Southwest,Washington,DC,20024
499230,7809 Highway 2302,Panama City,FL,32409
442426,3180 Parthenon Avenue,Nashville,TN,37203
106889,3827 West Chapman Avenue,Orange,CA,92868
876027,7310 East Chester Heights Circle,Anchorage,AK,99504
821386,14 Linden Street,Manchester,CT,06040
763843,599 Cambridge Street,Cambridge,MA,02141
559061,3601 South Portland Avenue,Oklahoma City,OK,73119
962809,9036 Calico Court,Hesperia,CA,92344
585880,60 Montgomery Street,Springfield,MA,01151
926232,5813 Hammermill Loop,Montgomery,AL,36116
728134,1403 Robinson Road,Nashville,TN,37138
495980,3420 Horseshoe Circle,Montgomery,AL,36116
573342,7950 West 51st Avenue,Arvada,CO,80002
397210,6515 West Poinsettia Drive,Glendale,AZ,85304
412268,1309 Southwest 71st Terrace,Oklahoma City,OK,73159
485020,201 Juniper Springs Drive,Mammoth Lakes,CA,93546
285436,328 Missouri Avenue Northwest,Washington,DC,20011
906341,507 Castlebrook Drive,Montgomery,AL,36110
639174,3146 North Old Wire Road,Fayetteville,AR,72703
893225,10001 Pheasant Lane,Oklahoma City,OK,73162
347707,13426 West Rovey Avenue,Litchfield Park,AZ,85340
622621,11401 Totem Road,Anchorage,AK,99516
845983,7002 Secrest Court,Arvada,CO,80007
878819,1516 Ringe Drive,Severn,MD,21144
831398,6418 Iris Way,Arvada,CO,80004
440625,1014 South 2nd Street,Louisville,KY,40203
319345,80 Homestead Street,Manchester,CT,06042
707335,4296 North Blossom Court,Fayetteville,AR,72703
979221,9472 Noble Way,Arvada,CO,80007
251094,912 Locklayer Street,Nashville,TN,37208
416439,74 Westerly Street,Manchester,CT,06042
170217,3145 19th Avenue Court,Greeley,CO,80631
896834,7681 Delridge Circle,Anchorage,AK,99507
947169,833 South Brownell Road,Williston,VT,05495
478997,1514 Wyoming Avenue,Lynn Haven,FL,32444
466379,5603 Dune Creek Trail,Panama City,FL,32404
593171,33 Linscott Road,Hingham,MA,02043
904217,130 West Brown Road,Mesa,AZ,85201
309004,1122 McDaniel Street,Sun City Center,FL,33573
987785,6912 Sunrise Drive,Panama City,FL,32407
839541,111 20th Street,Mexico Beach,FL,32456
715515,2212 Daffin Drive,Savannah,GA,31404
686303,228 East Huntingdon Street,Savannah,GA,31401
927958,5150 West Eugie Avenue,Glendale,AZ,85304
424216,143 Canton Court,Goodlettsville,TN,37072
577137,1243 Doris Avenue,Pasadena,MD,21122
722559,6657 West Rose Garden Lane,Glendale,AZ,85308
598518,84 Orange Street,Barre,VT,05641
289964,4714 Narrow Lane Road,Montgomery,AL,36116
189792,201 North Locust Avenue,Fayetteville,AR,72701
966504,2812 Jasper Street Southeast,Washington,DC,20020
938297,2318 Camryns Crossing,Panama City,FL,32405
520909,404 Summit Oaks Drive,Nashville,TN,37221
611326,3301 Nora Lane,Louisville,KY,40220
999541,35 Leominster Road,Lunenburg,MA,01462
226486,1267 Martin Street,Nashville,TN,37203
532265,7435 East Tulare Avenue,Fresno,CA,93737
777782,14358 West 88th Place,Arvada,CO,80005
542381,1032 Brayhill Road,Edmond,OK,73003
288839,5300 Robinwood Road,Louisville,KY,40218
873340,2500 Medallion Drive,Union City,CA,94587
781820,6391 West 60th Avenue,Arvada,CO,80003
477535,517 Retford Drive,Severna Park,MD,21146
976177,3189 Main Street,Mammoth Lakes,CA,93546
835379,5 Centercrest Drive,Tyngsborough,MA,01879
935974,161 Creek Road,Middlebury,VT,05753
324618,24 Lawton Road,Manchester,CT,06042
997992,361 Parmley Lane,Nashville,TN,37207
572843,357 Chaplin Street Southeast,Washington,DC,20019
253948,13 Breezy Palm Way,Savannah,GA,31406
227999,3300 Gatsby Lane,Montgomery,AL,36106
346693,37 Rushforde Drive,Manchester,CT,06040
372545,20930 Todd Valley Road,Foresthill,CA,95631
598575,22 Gallatin Street Northeast,Washington,DC,20011
657865,6880 Xavier Circle,Westminster,CO,80030
521729,328 South Ranchwood Manor Drive,Oklahoma City,OK,73139
760929,154 Byrd Drive,Panama City,FL,32404
969481,7822 Club Crest Drive,Arvada,CO,80005
832873,4331 Foeburn Lane,Louisville,KY,40207
363133,2803 6th Street Northeast,Washington,DC,20017
725926,4812 Alton Place Northwest,Washington,DC,20016
426166,4012 Heritage Place Drive,Norman,OK,73072
179828,7229 Lewis Place,Anchorage,AK,99507
412494,6506 North Lagoon Drive,Panama City Beach,FL,32408
236012,709 Mildred Street,Montgomery,AL,36104
739673,1629 South Razorback Road,Fayetteville,AR,72701
666755,5792 Owl Hill Avenue,Santa Rosa,CA,95409
629721,831 West Center Street,Fayetteville,AR,72701
852218,712 Parkside Place Northeast,Washington,DC,20019
473918,1817 Southeast 14th Street,Moore,OK,73160
229278,7 Rose Dhu Lane,Savannah,GA,31419
781372,5461 West Shades Valley Drive,Montgomery,AL,36108
915500,4 Cutting Avenue,Worcester,MA,01606
346268,4719 West Cochise Drive,Glendale,AZ,85302
765369,332 Stafford Road,Fall River,MA,02721
361729,317 Windsor Road,Savannah,GA,31419
380574,137 Gazebo East Drive,Montgomery,AL,36117
782295,1126 Oates Street Northeast,Washington,DC,20002
318573,3617 Menlo Court,Montgomery,AL,36116
935230,1025 West 19th Street,Panama City,FL,32405
169641,112 North Hunter Street,Farmington,AR,72730
952168,7717 Everett Street,Arvada,CO,80005
322652,618 Ava Circle Northeast,Washington,DC,20017
904327,17020 West 64th Drive,Arvada,CO,80007
967769,4922 West Cholla Street,Glendale,AZ,85304
360577,1736 81st Avenue,Oakland,CA,94621
809483,115 Wells Street,Manchester,CT,06040
461493,66 Bradford Road,Braintree,MA,02184
676550,8219 Minor Lane,Louisville,KY,40219
373335,4001 Anderson Road,Nashville,TN,37217
774043,8427 West Glendale Avenue,Glendale,AZ,85305
594162,22352 North 67th Drive,Glendale,AZ,85310
977866,51185 Helmsman Street,Kenai,AK,99611
949361,68 Bigelow Street,Manchester,CT,06040
210431,7000 Hugh Drive,Panama City,FL,32404
900039,501 West Maple Street,Fayetteville,AR,72701
578291,644 Byam Road,Bethel,VT,05032
888485,194 Buckland Hills Drive,Manchester,CT,06042
641414,3728 9th Street Northwest,Washington,DC,20010
384121,30 Tanner Street,Manchester,CT,06042
342621,4444 Hansen Avenue,Fremont,CA,94536
189756,7841 West Kristal Way,Glendale,AZ,85308
763697,208 Bonita Circle,Panama City Beach,FL,32408
184351,6516 Nile Circle,Arvada,CO,80007
918916,984 Greendale Avenue,Needham,MA,02492
481333,29 East Avenue,Colchester,VT,05446
438462,3612 Jim Robison Drive,Edmond,OK,73013
849178,5722 8th Street Northwest,Washington,DC,20011
937324,802 Madison Street Northwest,Washington,DC,20011
828756,2613 Southeast 50th Street,Oklahoma City,OK,73129
801939,8157 East Beach Drive Northwest,Washington,DC,20012
738071,112 Mallard Drive,Savannah,GA,31419
191719,19237 North 69th Avenue,Glendale,AZ,85308
712785,270 Tampa Drive,Nashville,TN,37211
567223,7912 Depew Street,Arvada,CO,80003
660747,1822 Pine Grove Court,Severn,MD,21144
538199,89 Plaistow Road,Haverhill,MA,01830
132465,35805 Alcazar Court,Fremont,CA,94536
652836,407 West Hillwood Drive,Nashville,TN,37205
213287,8546 North 59th Lane,Glendale,AZ,85302
325110,1414 East Anderson Street,Savannah,GA,31404
846036,3901 Old Seward Highway,Anchorage,AK,99503
600492,1954 Hilltop Road,Jessup,MD,20794
742580,798 Airport Road,Panama City,FL,32405
849698,5348 Main Street,Franklin,VT,05457
890514,1189 Northwest End Avenue,Fayetteville,AR,72703
392088,1426 C Street Southeast,Washington,DC,20003
487620,2139 Glynnwood Drive,Savannah,GA,31404
703176,606 Spence Enclave Way,Nashville,TN,37210
396665,3203 US Highway 98,Mexico Beach,FL,32456
350503,115 Falkirk Street,Savannah,GA,31407
978984,1405 Hickory Avenue,Panama City,FL,32401
772934,3813 Sheffield Lane,Pueblo,CO,81005
521863,3377 Sandstone Court,Pleasanton,CA,94588
465960,3321 Eureka Street,Anchorage,AK,99503
496932,8318 North 57th Drive,Glendale,AZ,85302
484488,3213 Ivy Wood Lane,Laurel,MD,20724
246659,1330 West 82nd Avenue,Anchorage,AK,99518
389863,9716 South Silver Lake Road,Fountain,FL,32438
876819,1809 Hughes Street,Nashville,TN,37208
110126,2008 Ashton Avenue,Nashville,TN,37218
938738,354 North University Avenue,Fayetteville,AR,72701
860447,6231 North 67th Avenue,Glendale,AZ,85301
160702,127 Andover Drive,Savannah,GA,31405
602354,4603 Grant Street Northeast,Washington,DC,20019
576878,9176 Ellis Way,Arvada,CO,80005
436623,17800 Creekwood Lane,Choctaw,OK,73020
302644,307 Meadowood Court,Lynn Haven,FL,32444
736292,5754 Belleau Drive,Montgomery,AL,36117
842815,2807 Huxley Place,Fremont,CA,94555
292151,117 South Capitol Parkway,Montgomery,AL,36107
944971,27 Leary Drive,Savannah,GA,31406
689602,1010 10th Street Northeast,Washington,DC,20002
113139,205 Harrison Avenue,Louisville,KY,40243
992107,708 Pine Drift Drive,Odenton,MD,21113
429945,622 Thomas Street,Woodland,CA,95776
426144,625 West Main Street,Moore,OK,73160
229321,422 Richmond Street,El Cerrito,CA,94530
767206,110 Lenoak Drive,Louisville,KY,40214
863682,8 Richardson Road,Barre,VT,05641
260858,2246 West Fairview Avenue,Montgomery,AL,36108
760358,6016 Northwest 27th Street,Oklahoma City,OK,73127
974595,8133 Meadowgreen Place,Louisville,KY,40299
719115,5615 West Villa Maria Drive,Glendale,AZ,85308
790296,224 Michael Sears Road,Belchertown,MA,01007
569043,21 Soling Avenue,Savannah,GA,31419
895409,4201 Georgia Avenue Northwest,Washington,DC,20011
451767,314 Mesa Street,Wheatland,CA,95692
434357,6233 South Hampton Drive,Montgomery,AL,36116
125854,44 Colonial Road,Manchester,CT,06042
231250,46 Apel Place,Manchester,CT,06042
982371,8447 West 51st Avenue,Arvada,CO,80002
225716,8442 Everett Way,Arvada,CO,80005
578332,1420 12th Street Northwest,Washington,DC,20005
649589,7041 Dover Avenue,North Beach,MD,20714
952921,4200 Northwest 59th Street,Oklahoma City,OK,73112
958158,1227 Aaron Street,Montgomery,AL,36104
917015,689 Stableway Road,Pike Road,AL,36064
559781,900 Dupont Road,Louisville,KY,40207
879861,6578 Marauder Drive,Nashville,TN,37209
977124,18 Cambridge Street,Manchester,CT,06042
872998,2502 Adrienne Way,Louisville,KY,40216
552382,3782 North Front Street,Fayetteville,AR,72703
600880,5302 1st Street Northwest,Washington,DC,20011
318842,519 Roxboro Place Northwest,Washington,DC,20011
343148,540 East Appleby Road,Fayetteville,AR,72703
323057,31130 Meadowbrook Avenue,Hayward,CA,94544
862917,4700 10th Street Northeast,Washington,DC,20017
925017,125 Heritage Way,Savannah,GA,31419
171849,3708 Fort Lincoln Drive Northeast,Washington,DC,20018
222604,1263 Evarts Street Northeast,Washington,DC,20018
788637,1011 Devon Drive,Hayward,CA,94542
159552,8404 West Myrtle Avenue,Glendale,AZ,85305
823745,103 Martin Luther King Junior Boulevard,Fayetteville,AR,72701
114909,6610 North 93rd Avenue,Glendale,AZ,85305
863887,10175 West 58th Place,Arvada,CO,80004
489376,4927 Alvin Sperry Road,Mount Juliet,TN,37122
131583,301 Argonaut Street,Panama City Beach,FL,32413
873123,954 Dowler Drive,Eureka,CA,95501
542673,503 Orchard Road,Glen Burnie,MD,21061
378080,4231 Laurel Street,Anchorage,AK,99508
538884,25 Church Street,Pittsfield,MA,01201
348124,5029 Montclair Drive,Nashville,TN,37211
822072,905 C Street Northeast,Washington,DC,20002
519547,10301 La Plaza Drive,Louisville,KY,40272
843840,2134 West Mills Drive,Orange,CA,92868
335954,2409 Park Street,Selma,CA,93662
197218,15510 Champion Lakes Place,Louisville,KY,40245
116165,320 South Ramblin Oaks Drive,Moore,OK,73160
464615,435 Porter Lake Drive,Springfield,MA,01106
218267,921 5th Street Southeast,Washington,DC,20003
315208,519 West 75th Avenue,Anchorage,AK,99518
950663,1504 P Street Northwest,Washington,DC,20005
651998,5912 North 48th Avenue,Glendale,AZ,85301
127134,7420 Bearfoot Circle,Anchorage,AK,99502
931431,3008 Russell Street,Berkeley,CA,94705
670384,311 South Panama Street,Montgomery,AL,36107
674196,39 Tania Drive,Manchester,CT,06040
675723,1432 Bell Trace Drive,Nashville,TN,37013
453728,488 Mill Road,Hartford,VT,05001
944562,113 Hammarlee Road,Glen Burnie,MD,21060
684926,8 Elmwood Drive,Rutland,VT,05701
807739,208 Solitude Circle,Goodlettsville,TN,37072
670626,4401 Virginia Avenue,Louisville,KY,40211
724418,38252 Farwell Drive,Fremont,CA,94536
417884,420 Cove Villa Street,Panama City Beach,FL,32407
458829,5110 East Shoshone Avenue,Orange,CA,92867
865840,182 Regency Circle,Pooler,GA,31322
613767,653 Vermont 12,Hartland,VT,05048
760966,152 Teddy Drive,Union City,CA,94587
432659,15267 Hesperian Boulevard,San Leandro,CA,94578
101860,5209 North Dewey Avenue,Oklahoma City,OK,73118
927185,103 North East Avenue,Panama City,FL,32401
494053,2741 31st Place Northeast,Washington,DC,20018
568176,3013 Sprowl Road,Jeffersontown,KY,40299
992608,9457 Winfield Place,Montgomery,AL,36117
312961,4907 Roger Drive,Anchorage,AK,99507
936797,26 Greenbriar Drive,Savannah,GA,31419
310084,3215 Madsen Street,Hayward,CA,94541
422650,441 Merritt Avenue,Oakland,CA,94610
129841,3328 Sunny Meadows Court,Birmingham,AL,35242
988748,5615 West Acoma Drive,Glendale,AZ,85306
351359,1937 Carleton Street,Berkeley,CA,94704
999428,90 Peabody Street,Nashville,TN,37210
829311,776 Morrill Road,Danville,VT,05828
493207,7549 Delancey Street,Youngstown,FL,32466
461415,4900 Cambridge Way,Anchorage,AK,99503
837629,4516 Old Seward Highway,Anchorage,AK,99503
967459,3528 Seasons Drive,Nashville,TN,37013
180776,21 Glenoak Lane Northwest,Glen Burnie,MD,21061
733930,3 Dayton Street,Chelmsford,MA,01863
599805,10996 Largo Drive,Savannah,GA,31419
664003,65 Bay Drive,Annapolis,MD,21403
374083,3425 North Futrall Drive,Fayetteville,AR,72703
874391,433 Keith Street,Norman,OK,73071
761587,31 Hills Point Road,Charlotte,VT,05445
459624,4800 Huffman Road,Anchorage,AK,99516
109511,1318 35th Street Northwest,Washington,DC,20007
397347,8915 Shevie Drive,Louisville,KY,40272
547765,2534 Willena Avenue,Montgomery,AL,36107
890737,1520 H Street Northwest,Washington,DC,20006
226813,145 Grau Drive,Fremont,CA,94536
924445,1332 Maple Street,Montgomery,AL,36108
541173,1828 East Parkshore Drive,Fayetteville,AR,72703
147013,415 West 42nd Street,Savannah,GA,31401
525631,13 Warren Avenue,Somerville,MA,02143
206370,173 Center Street,Manchester,CT,06040
588071,7701 Taylor Oaks Circle,Montgomery,AL,36116
419748,9401 3rd Street Road,Louisville,KY,40272
420035,8125 Glynnwood Drive,Montgomery,AL,36117
213112,275 Henry Street,Manchester,CT,06042
794438,1600 20th Street Northwest,Washington,DC,20009
455536,1995 Nolensville Pike,Nashville,TN,37211
431422,12 Red Fox Drive,Savannah,GA,31419
305725,1427 H Street,Anchorage,AK,99501
121560,6244 Sun River Drive,Sacramento,CA,95824
867318,512 Tennyson Road,Hayward,CA,94544
578261,376 North Williams Drive,Fayetteville,AR,72701
866702,2 Cockle Shell Road,Savannah,GA,31419
562907,130 Old Route 103,Chester,VT,05143
870838,15238 North 65th Avenue,Glendale,AZ,85306
723154,410 51st Avenue North,Nashville,TN,37209
921281,8595 North 71st Avenue,Glendale,AZ,85301
629926,6452 El Camino Real,Atascadero,CA,93422
489900,600 West North Street,Fayetteville,AR,72701
332091,1938 Arcadian Street,Savannah,GA,31405
901069,5685 Express Drive,Montgomery,AL,36116
822940,7296 West Wedington Drive,Fayetteville,AR,72704
164239,1552 Gibson Street,Montgomery,AL,36110
671016,125 Connors Street,Gardner,MA,01440
389845,7941 Alpine View Circle,Anchorage,AK,99507
448243,713 Ringgold Drive,Nashville,TN,37207
879694,1536 North Main Street,Salinas,CA,93906
454911,612 Penn Lane,Moore,OK,73160
200070,1402 North Capitol Street Northwest,Washington,DC,20002
891221,4405 West Solano Drive South,Glendale,AZ,85301
902676,233 Buckland Hills Drive,Manchester,CT,06042
856962,4216 Lorraine Street,Panama City Beach,FL,32408
398316,2936 State Avenue,Panama City,FL,32405
254748,1408 Holly Street,Nashville,TN,37206
242116,6030 Newland Street,Arvada,CO,80003
886010,2201 Fendall Court,Crofton,MD,21114
314571,2405 230th Street,Pasadena,MD,21122
968558,46 Deslauriers Street,Chicopee,MA,01020
470783,16 Harlow Road,Springfield,VT,05156
212879,2707 Wendell Avenue,Louisville,KY,40205
366961,3714 John Mallette Drive,Nashville,TN,37218
342300,460 Woodbridge Street,Manchester,CT,06042
131589,1632 North Lunsford Avenue,Fayetteville,AR,72701
228207,201 East 16th Avenue,Anchorage,AK,99501
347495,141 Lavigne Road,Colchester,VT,05446
817197,236 Middle Turnpike East,Manchester,CT,06040
199743,5011 West New World Drive,Glendale,AZ,85302
182235,1644 New Jersey Avenue Northwest,Washington,DC,20001
103219,33 Pond Avenue,Brookline,MA,02445
310812,2142 Colonel Way,Odenton,MD,21113
302135,8506 Laviento Drive,Anchorage,AK,99515
404960,3537 West Chevaux Drive,Fayetteville,AR,72704
926963,1300 Lemos Lane,Fremont,CA,94539
193731,713 East 32nd Street,Savannah,GA,31401
601600,17 Hillcrest Road,Rutland,VT,05701
141258,212 Burk Way,Del City,OK,73115
377818,3208 Southwest 65th Street,Oklahoma City,OK,73159
503069,6148 Avon Avenue,San Gabriel,CA,91775
608651,835 Shiloh Court,Redding,CA,96003
705237,9200 Gainswood Circle,Montgomery,AL,36117
752325,5244 West Port Au Prince Lane,Glendale,AZ,85306
207161,831 21st Street Northeast,Washington,DC,20002
854828,175 Oak Street,Manchester,CT,06040
585655,1407 Walden Court,Crofton,MD,21114
948874,240 Chatham Lane,Annapolis,MD,21403
682646,1313 North Road,Hinesburg,VT,05461
379474,1311 Elm Hill Pike,Nashville,TN,37210
716688,8526 Preston Highway,Louisville,KY,40219
238030,2555 West 69th Court,Anchorage,AK,99502
363409,39 Cottage Street,Athol,MA,01331
923321,7308 Northwest 119th Street,Oklahoma City,OK,73162
104279,1679 Frederick Michael Way,Livermore,CA,94550
941920,2222 Martin Luther King Junior Boulevard,Fayetteville,AR,72701
724019,5611 North 61st Avenue,Glendale,AZ,85301
675473,402 Tuten Avenue,Savannah,GA,31415
134254,407 Bon Air Avenue,Brooklyn Park,MD,21225
413414,7427 West Abraham Lane,Glendale,AZ,85308
581563,2021 West Burnett Avenue,Louisville,KY,40210
132331,90 Mountain Street,Bristol,VT,05443
930554,5470 Atlanta Highway,Montgomery,AL,36109
159705,803 18th Avenue South,Nashville,TN,37203
465451,2337 Nebraska Avenue,Selma,CA,93662
680497,2313 Mansfield Avenue,Del City,OK,73115
282363,10307 Rock Falls Court,Louisville,KY,40223
334854,1720 D Street Northeast,Washington,DC,20002
688899,1025 Rose Anne Road,Glen Burnie,MD,21060
875553,112 Joyner Avenue,Nashville,TN,37210
231475,16 Conway Street,Shelburne Falls,MA,01370
292187,707 Harrisburg Drive,Davidsonville,MD,21035
980711,1402 Maggies Way,Waterbury Center,VT,05677
717709,200 West Center Street,Manchester,CT,06040
589633,1643 Oxford Street,Berkeley,CA,94709
370762,1400 Rosa L Parks Boulevard,Nashville,TN,37208
846887,1710 East Harold Street,Fayetteville,AR,72703
323885,1720 Quacco Road,Pooler,GA,31322
707542,1352 Purdue Street,San Leandro,CA,94579
966002,197 Oak Street,Manchester,CT,06040
409047,67 Steeplechase Drive,Manchester,CT,06040
773770,1318 22nd Street Northwest,Washington,DC,20037
225442,1500 South Division Street,Guthrie,OK,73044
318308,5900 Upland Road,Brooklyn Park,MD,21225
170509,11655 West 81st Avenue,Arvada,CO,80005
378109,5740 North 59th Avenue,Glendale,AZ,85301
312557,537 East Waldburg Street,Savannah,GA,31401
573510,12156 Oslo Drive,Truckee,CA,96161
398251,7822 West Peppertree Lane,Glendale,AZ,85303
762535,5119 West Columbine Drive,Glendale,AZ,85304
881361,11 North Vineyard Drive,Pueblo West,CO,81007
447202,414 Tanya Pass,Panama City,FL,32404
426648,1623 Mines Road,Lowell,VT,05847
285908,5856 Parfet Court,Arvada,CO,80004
284975,4400 Vaneto Drive,Louisville,KY,40216
530484,195 Nursery Street,Springfield,MA,01104
354011,18505 Onyx Avenue,Waddell,AZ,85355
447516,1320 Dunbarton Road,Montgomery,AL,36117
819646,109 Summit Street,Burlington,VT,05401
561896,8642 Yule Street,Arvada,CO,80007
388685,1734 Corcoran Street Northwest,Washington,DC,20009
249040,637 Laurelwood Circle,Vacaville,CA,95687
277565,1010 M Street Northwest,Washington,DC,20001
685117,1729 Frankford Street Southeast,Washington,DC,20020
962406,2204 7th Street Road,Louisville,KY,40208
547737,5128 West Carol Avenue,Glendale,AZ,85302
219284,2928 Avon Road,Panama City,FL,32405
891201,10202 Vista Drive,Cupertino,CA,95014
940166,150 Carter Street,Manchester,CT,06040
342219,619 West 19th Avenue,Anchorage,AK,99503
893602,63 Columbia Drive,Manchester,CT,06042
227402,4350 Woodley Square,Montgomery,AL,36116
287425,8821 West Myrtle Avenue,Glendale,AZ,85305
302337,46710 Crawford Street,Fremont,CA,94539
140954,3110 East Victory Drive,Savannah,GA,31404
517361,53 Philip Road,Manchester,CT,06040
482257,1643 North Jordan Lane,Fayetteville,AR,72703
497684,2313 Vegas Avenue,Castro Valley,CA,94546
624878,100 Lake Forest Drive,Montgomery,AL,36117
474435,517 Wesley Avenue,Nashville,TN,37207
467589,1558 Goodfellow Road,Groton,VT,05046
971889,4010 Governors Drive,Montgomery,AL,36111
931315,2262 Hall Place Northwest,Washington,DC,20007
372912,222 Quince Street,San Diego,CA,92103
354648,7808 Baltimore Annapolis Boulevard,Glen Burnie,MD,21060
167225,268 Glengary Garth,Glen Burnie,MD,21061
208634,6 Oak Street,Town of Rockingham,VT,05101
848832,1400 Doris Drive,Louisville,KY,40118
722856,301 Southeast 37th Street,Oklahoma City,OK,73129
174777,35 Keach Avenue,Worcester,MA,01607
296758,89 Augusta Drive,Fayetteville,AR,72703
943279,12725 Landmark Street,Anchorage,AK,99515
302345,205 West Montgomery Cross Road,Savannah,GA,31406
313039,140 West Cooper Avenue,Aspen,CO,81611
234718,15 Mystic Avenue,Medford,MA,02155
752825,2620 West 33rd Avenue,Anchorage,AK,99517
292743,7785 Montgomery Mews Court,Severn,MD,21144
742895,169 Avenida Drive,Berkeley,CA,94708
876543,1642 Fendall Court,Crofton,MD,21114
218559,12013 Blue Moon Avenue,Oklahoma City,OK,73162
131268,91 Courthouse Drive,Guildhall,VT,05905
542721,56 Concord Road,Manchester,CT,06042
279368,42 Adams Road,Greenfield,MA,01301
916683,5109 39th Street Northwest,Washington,DC,20016
616399,4438 Maine Avenue,Baldwin Park,CA,91706
411335,8216 West Citrus Way,Glendale,AZ,85303
108644,737 Nelson Road,Ludlow,VT,05149
376831,1917 Whitaker Street,Savannah,GA,31401
833972,3862 Almond Avenue,Fremont,CA,94538
825613,235 Brock Bridge Road,Laurel,MD,20724
488447,10714 Abercorn Street,Savannah,GA,31419
340246,316 20th Street Northeast,Washington,DC,20002
946495,4712 Rock Creek Road,Ardmore,OK,73401
317920,1907 18th Avenue South,Nashville,TN,37212
908802,5242 Thornton Lane,Panama City,FL,32404
679166,721 South Jackson Street,Louisville,KY,40203
452808,5701 North 67th Avenue,Glendale,AZ,85301
400339,2010 Rising Hill Drive,Norman,OK,73071
522151,2314 Marian Bay Circle,Anchorage,AK,99515
288769,122 40th Avenue North,Nashville,TN,37209
639118,4444 Central Avenue,Fremont,CA,94536
181557,10 Skyline Way,Hartford,VT,05001
455547,2278 North Windswept Lane,Fayetteville,AR,72703
600920,280 Blue Moon Crossing,Pooler,GA,31322
600825,7 South University Avenue,Fayetteville,AR,72701
578528,8036 Laketowne Court,Severn,MD,21144
568859,43 Howarth Avenue,Attleboro,MA,02703
199984,20117 Lucas Avenue,Anchorage,AK,99577
331244,678 Fairlane Street,Fayetteville,AR,72701
639537,29 Church Street,Easthampton,MA,01027
365406,2147 Millhaven Drive,Edgewater,MD,21037
182073,2708 Riverview Drive,Riva,MD,21140
245210,29 Lucian Street,Manchester,CT,06040
788842,3904 Martagon Circle,Anchorage,AK,99516
845599,5837 West Evans Drive,Glendale,AZ,85306
471459,5611 Kendall Court,Arvada,CO,80002
398539,34 Belair Drive,Holbrook,MA,02343
109965,81 Seaton Place Northwest,Washington,DC,20001
863803,16 Cabot Street,Everett,MA,02149
474881,640 Hilliard Street,Manchester,CT,06042
289385,12061 Johns Road,Anchorage,AK,99515
768349,6740 West Montebello Avenue,Glendale,AZ,85303
360847,1528 Spruce Street,Berkeley,CA,94709
469327,3142 West Finger Road,Fayetteville,AR,72701
524669,1431 King George Boulevard,Savannah,GA,31419
420116,202 Winston Road,Pasadena,MD,21122
168589,33 Chesapeake Mobile Court,Hanover,MD,21076
244091,1397 Tallac Lane,Lincoln,CA,95648
478940,3555 Alamosa Drive,Anchorage,AK,99502
824437,20 Hacker Street,Worcester,MA,01603
531029,3517 S Street Northwest,Washington,DC,20007
414458,370 Wallace Road,Nashville,TN,37211
707404,7 River Otter Lane,Savannah,GA,31411
153340,320 Northwest 22nd Street,Oklahoma City,OK,73103
699692,5036 Jericho Street,Hartford,VT,05001
384694,3808 South Smiley Circle,Montgomery,AL,36108
736568,205 Homestead Street,Manchester,CT,06042
230743,1870 A Street,Oroville,CA,95966
614922,649 South 41st Street,Louisville,KY,40211
761967,3040 17th Street,Boulder,CO,80304
337980,2611 Bluefield Avenue,Nashville,TN,37214
984933,5222 Nick Road,Shady Side,MD,20764
127842,11117 Stonehedge Drive,South Burlington,VT,05403
677358,1123 Ardee Avenue,Nashville,TN,37216
786631,10 Dalry Lane,Savannah,GA,31419
117776,416 South University Boulevard,Norman,OK,73069
823074,6925 Lariat Lane,Castro Valley,CA,94552
595543,9399 Yucca Way,Arvada,CO,80007
888484,3231 North Kings Cross,Fayetteville,AR,72703
834033,3770 North Front Street,Fayetteville,AR,72703
228301,14525 South Brent Drive,Oklahoma City,OK,73170
556977,600 Crosby Boulevard,Midwest City,OK,73110
333183,6729 North 54th Avenue,Glendale,AZ,85301
368337,6419 8th Street Northwest,Washington,DC,20012
919296,152 Holly Court,Mountain View,CA,94043
569069,8506 West 54th Avenue,Arvada,CO,80002
655866,13628 West 62nd Drive,Arvada,CO,80004
463864,904 Shepherd Street Northwest,Washington,DC,20011
522604,5549 West Hearn Road,Glendale,AZ,85306
341861,3060 Zelda Road,Montgomery,AL,36106
140556,6755 Mulberry Drive,Anchorage,AK,99502
501541,239 Eastern Avenue,Fayetteville,AR,72701
991242,3420 Northwest 41st Street,Oklahoma City,OK,73112
837928,8752 Pierce Way,Arvada,CO,80003
663712,4493 Heath Circle,Rohnert Park,CA,94928
214209,118 Pearl Street,Manchester,CT,06040
556809,7910 Ralston Road,Arvada,CO,80002
279707,1109 East Glenn Lane,Fayetteville,AR,72703
241421,11102 Little Rock Court,Louisville,KY,40241
207133,3 Hawser Way,Port Wentworth,GA,31407
177571,1713 Arrow Cove Lane,Annapolis,MD,21401
216389,7090 West 64th Avenue,Arvada,CO,80003
891449,10202 North 51st Drive,Glendale,AZ,85302
456596,6013 Cherry Hill Road,Montgomery,AL,36116
492266,915 Hargrove Street,Ardmore,OK,73401
886540,4016 Doane Street,Fremont,CA,94538
723585,2544 Worthington Way,Fayetteville,AR,72703
172853,398 Gove Hill Road,Thetford,VT,05075
804868,3414 Vance Lane,Montgomery,AL,36109
582571,42 Edison Road,Manchester,CT,06040
765464,60 Downey Drive,Manchester,CT,06040
671368,2900 North Western Avenue,Edmond,OK,73012
687895,Biloxi Crossing,Fayetteville,AR,72701
797737,7 Cloutman Street,Salem,MA,01970
513648,1106 Commanders Way South,Annapolis,MD,21409
437046,9712 Stream View Trail,Louisville,KY,40258
948989,711 Tashanna Lane,Southport,FL,32409
200219,22709 Canyon Terrace Drive,Castro Valley,CA,94552
390460,2821 Tyson Place,Louisville,KY,40218
617847,304 Wilmington Island Road,Savannah,GA,31410
933290,3065 East Pebblestone Drive,Fayetteville,AR,72701
413867,6988 West Blackhawk Drive,Glendale,AZ,85308
888962,60 Desousa Drive,Manchester,CT,06040
691876,2538 East 40th Plaza,Panama City,FL,32405
537803,4231 Miramonte Way,Union City,CA,94587
559305,325 Baxter Lane,Fayetteville,AR,72701
238319,822 Bowden Street,Savannah,GA,31415
766735,6328 West Brown Street,Glendale,AZ,85302
665650,4809 Trappers Ridge,Nashville,TN,37013
632247,1809 Cedar Drive,Severn,MD,21144
605128,15 Cranberry Hill Road,Thetford,VT,05043
283992,1783 Blakely Road,Colchester,VT,05446
921320,110 Elmwood Avenue,Barre,VT,05641
653661,10124 Watsonville Road,Louisville,KY,40272
662479,7010 Fulton Court,Montgomery,AL,36117
120587,7321 Mary Jo Avenue,Panama City,FL,32409
513447,1350 Exley Street,Savannah,GA,31415
284473,11813 West 75th Circle,Arvada,CO,80005
831408,1544 Kenilworth Avenue Northeast,Washington,DC,20019
865447,2632 Jackson Street East,Carson,CA,90810
863518,233 Ingraham Street Northwest,Washington,DC,20011
641963,824 Main Street,Manchester,CT,06040
668624,912 Countryside Lane,Montgomery,AL,36117
682716,9828 East Pueblo Avenue,Mesa,AZ,85208
692911,330 Michell Court,Livermore,CA,94551
721615,5950 West Missouri Avenue,Glendale,AZ,85301
192718,96 Green Manor Road,Manchester,CT,06042
998312,2806 Bass Street,Anchorage,AK,99507
178139,1906 Palmetto Avenue,Panama City,FL,32405
470945,2196 East Jonquil Road,Fayetteville,AR,72703
459215,1514 16th Street Southeast,Washington,DC,20020
673452,1628 Button Bay Road,Vergennes,VT,05491
964247,3600 Pennsylvania Avenue,Fremont,CA,94536
499189,2613 Cottonwood Street,Anchorage,AK,99508
170187,1613 Ensenada Way,Aurora,CO,80011
939666,1613 Katrina Circle,Anchorage,AK,99508
553576,2115 Northwest 22nd Street,Oklahoma City,OK,73107
454499,11012 Eagles Cove Drive,Louisville,KY,40241
489115,3505 Richmond Avenue,Anchorage,AK,99508
173862,1820 Scenic Avenue,Berkeley,CA,94709
453653,82 Fairfield Street,Manchester,CT,06040
948870,3901 West End Avenue,Nashville,TN,37205
586359,1304 Southwest 67th Street,Oklahoma City,OK,73159
344917,1518 Jenks Avenue,Panama City,FL,32405
858909,7609 Doris Place,Oklahoma City,OK,73162
606741,1825 Woodland Farms Court,Nashville,TN,37138
506822,82 Lookout Mountain Drive,Manchester,CT,06040
134586,743 East 9th Avenue,Anchorage,AK,99501
337578,7301 Northwest 113th Terrace,Oklahoma City,OK,73162
418395,1123 Glenwood Avenue,Nashville,TN,37204
275921,111 Edgewater Road,Savannah,GA,31406
934109,1376 Oakland Avenue,Fayetteville,AR,72703
296846,13583 West 68th Avenue,Arvada,CO,80004
736685,316 Sourwood Court,Millersville,MD,21108
887321,906 West Berry Street,Fayetteville,AR,72701
618352,1219 North Storer Avenue,Fayetteville,AR,72703
697590,1313 Paulson Way,Nashville,TN,37013
238584,45 Heathcote Circle,Savannah,GA,31405
403372,243 West Haven Drive,Severna Park,MD,21146
929045,19141 Pine Ridge Circle,Anchorage,AK,99516
283288,265 Airport Road,Weathersfield,VT,05151
968198,8554 Twin Gable Drive,Montgomery,AL,36116
443865,3437 Sommerville Drive,Montgomery,AL,36111
805500,417 West Park Place,Oklahoma City,OK,73103
103398,615 Long Hunter Court,Nashville,TN,37217
719096,4000 Beth Manor Drive,Montgomery,AL,36109
276030,4600 East Huntsville Road,Fayetteville,AR,72701
550660,435 East 5th Avenue,Anchorage,AK,99501
754647,3228 Chettenham Drive,Rancho Cordova,CA,95670
215654,5116 Feys Court,Louisville,KY,40216
706720,141 West Leslie Lane,Panama City Beach,FL,32407
309107,2543 The Meadows,Montgomery,AL,36116
303294,1749 Haleys Hope Court,Nashville,TN,37209
927996,1405 Tolkien Drive,Conway,AR,72034
601884,1709 West Market Street,Louisville,KY,40203
186863,1601 East 19th Street,Edmond,OK,73013
744661,5420 Sunset Avenue,Panama City Beach,FL,32408
329066,467 North Mountain Ranch Road,Fayetteville,AR,72704
336834,2203 7th Street Road,Louisville,KY,40208
338587,5412 East 22nd Avenue,Anchorage,AK,99508
305664,2017 North Hartford Drive,Fayetteville,AR,72701
282897,4455 West 61st Place,Arvada,CO,80003
142360,154 Lyness Street,Manchester,CT,06040
419884,2150 Yarbrough Street,Montgomery,AL,36110
600852,5334 West Northern Avenue,Glendale,AZ,85301
668446,6870 West 52nd Avenue,Arvada,CO,80002
314323,36 Grove Street,Manchester,CT,06042
396411,5385 Iris Street,Arvada,CO,80002
605073,1501 New Hampshire Avenue,Lynn Haven,FL,32444
602286,31 Ashworth Street,Manchester,CT,06040
592024,82 Linnmore Drive,Manchester,CT,06040
747516,2063 Notchbrook Road,Stowe,VT,05672
350314,7060 Eastern Avenue,Washington,DC,20012
915856,1902 6th Street Northwest,Washington,DC,20001
811798,3035 Osprey Circle,Panama City,FL,32405
287168,720 Southwest 2nd Street,Moore,OK,73160
816637,926 Mill Court,Savannah,GA,31419
221421,14505 Landis Villa Drive,Louisville,KY,40245
979753,20933 River Park Drive,Anchorage,AK,99577
568966,962 South Silverado Drive,Fayetteville,AR,72701
759484,14854 Bay View Circle,Panama City Beach,FL,32413
492580,3138 Banneker Drive Northeast,Washington,DC,20018
719539,5458 30th Street Northwest,Washington,DC,20015
194147,7 Vantine Avenue,Alburgh,VT,05440
436514,8358 WB&A Road,Severn,MD,21144
330937,1030 Lake Claire Drive,Annapolis,MD,21409
756490,54 Gentry Court,Annapolis,MD,21403
217885,1333 Kenyon Street Northwest,Washington,DC,20010
350379,323 Southeast 23rd Street,Oklahoma City,OK,73129
978861,427 Gulf View Drive,Panama City Beach,FL,32413
817692,2 Thompson Road,Manchester,CT,06040
390838,275 South 40th Street,Boulder,CO,80305
815686,26 Seaman Circle,Manchester,CT,06040
436078,14524 Lodestar Drive,Grass Valley,CA,95949
427493,747 West Pacific Avenue,Telluride,CO,81435
438163,22 South Duncan Avenue,Fayetteville,AR,72701
407818,1 Blue Jay Terrace,Wareham,MA,02571
309062,1430 South Gay Avenue,Panama City,FL,32404
606329,1644 Queenstown Road,Nichols Hills,OK,73116
305455,108 East 11th Avenue,Anchorage,AK,99501
400175,650 Malvern Street,Montgomery,AL,36108
196790,236 Alden Road,Hayward,CA,94541
529570,99 Pond Avenue,Brookline,MA,02445
455753,8376 Albacore Drive,Pasadena,MD,21122
528306,2704 McGee Avenue,Berkeley,CA,94703
419898,814 East 10th Court,Panama City,FL,32401
186483,701 Mussel Slough Road,Hanford,CA,93230
169056,53 Great Woods Road,Saugus,MA,01906
808727,5228 North 70th Avenue,Glendale,AZ,85303
962875,3320 Peterkin Avenue,Anchorage,AK,99508
931673,804 Dry Creek Road,Goodlettsville,TN,37072
206227,464 Springfield Street,Wilbraham,MA,01095
118271,2402 Eastbridge Court,Louisville,KY,40223
170598,2640 8th Avenue,Oakland,CA,94606
371310,1169 East Hopkins Avenue,Aspen,CO,81611
197301,1780 142nd Avenue,San Leandro,CA,94578
197408,51 Edgar Road,Scituate,MA,02066
481248,12 17th Place,Tybee Island,GA,31328
258019,20097 Butterfield Drive,Castro Valley,CA,94546
393101,3408 Taylorsville Road,Louisville,KY,40205
112532,8409 Gullane Court,Pasadena,MD,21122
318154,6408 Fern Crest Road,Louisville,KY,40291
146609,5529 East Saddleridge Drive,Fayetteville,AR,72703
607410,3538 Mendenhall Court,Pleasanton,CA,94588
931951,14006 Coffee Bluff Road,Savannah,GA,31419
234921,15557 Sutter Creek Road,Sutter Creek,CA,95685
969151,3115 North Lake Boulevard,Tahoe City,CA,96145
772913,72 Salmon Road,Alameda,CA,94502
899871,5707 Whispering Hills Boulevard,Louisville,KY,40219
755472,19020 North 68th Avenue,Glendale,AZ,85308
481887,4221 East Mission Boulevard,Fayetteville,AR,72703
626344,9302 West 58th Avenue,Arvada,CO,80002
795227,3504 East 5th Street,Panama City,FL,32401
283580,509 Sea Breeze Drive,Panama City Beach,FL,32413
828030,1310 Riggs Street Northwest,Washington,DC,20009
531383,7085 West Northern Avenue,Glendale,AZ,85303
836956,238 La Salle Avenue,Piedmont,CA,94610
238041,281 MacArthur Boulevard,Oakland,CA,94610
243465,77 Shadow Brook Estates,South Hadley,MA,01075
166742,8502 Madrone Avenue,Louisville,KY,40258
927327,17623 Norma Lane,Fountain,FL,32438
183924,53 Fairfield Street,Manchester,CT,06040
489031,82 East Foster Street,Melrose,MA,02176
701277,3604 West Market Street,Louisville,KY,40212
899419,1452 55th Avenue,Oakland,CA,94621
293777,140 South Hill Avenue,Fayetteville,AR,72701
908783,42 Lake Lane,Westmore,VT,05860
481674,3394 Wilmington Road,Montgomery,AL,36105
101616,107 Mark Drive,Glen Burnie,MD,21061
195995,201 West Street,Annapolis,MD,21401
611292,46 Lilac Street,Manchester,CT,06040
510883,3551 North Georgetown Drive,Montgomery,AL,36109
102358,8801 Rosshire Drive,Louisville,KY,40118
478058,25538 Calaroga Avenue,Hayward,CA,94545
961674,2170 Benton Boulevard,Pooler,GA,31322
124774,55 Russells Mills Road,Dartmouth,MA,02748
842614,487 Maury Street,Montgomery,AL,36104
539126,922 Urciolo Court,Annapolis,MD,21401
765982,2522 South College Drive,Fayetteville,AR,72701
109774,5316 Silver Wing Boulevard,Louisville,KY,40241
108578,5156 South Dakota Avenue Northeast,Washington,DC,20017
869202,3553 Brandywine Street Northwest,Washington,DC,20008
575161,614 East Duffy Lane,Savannah,GA,31401
442796,649 Praderia Circle,Fremont,CA,94539
309519,312 Westhill Avenue,Inverness,FL,34452
790905,6802 North 67th Avenue,Glendale,AZ,85301
772648,1909 Seventh Street,Berkeley,CA,94710
402024,707 Pinkston Street,Montgomery,AL,36109
180761,369 Ruth Avenue,Mountain View,CA,94043
318279,1600 West 11th Avenue,Anchorage,AK,99501
492109,6816 West 84th Circle,Arvada,CO,80003
533830,5065 North 54th Avenue,Glendale,AZ,85301
705217,3821 Southwest 25th Street,Oklahoma City,OK,73108
807113,190 Countryside Drive,Farmington,AR,72730
908558,2399 East 14th Street,San Leandro,CA,94577
874262,2349 East Tall Oaks Drive,Fayetteville,AR,72703
612391,1424 Winter Avenue,Louisville,KY,40204
832368,18 Hamilton Street Northwest,Washington,DC,20011
605268,5378 Allison Street,Arvada,CO,80002
494436,21950 Arnold Center Road,Carson,CA,90810
810794,416 Ridge Street Northwest,Washington,DC,20001
125816,22 Charnock Street,Beverly,MA,01915
324345,219 Bidwell Street,Manchester,CT,06040
162723,1879 South Cherry Hills Drive,Fayetteville,AR,72701
827711,7101 West Beardsley Road,Glendale,AZ,85308
562718,406 East Waldburg Street,Savannah,GA,31401
194616,124 Crane Street,Panama City,FL,32413
271292,14300 Leesa Lane,Edmond,OK,73013
165870,10725 Sunset Boulevard,Spencer,OK,73084
297242,1108 Slater Street,Santa Rosa,CA,95404
600887,40902 Ingersoll Terrace,Fremont,CA,94538
839081,2409 Research Boulevard,Fort Collins,CO,80526
308944,22 Eden Street,Millis,MA,02054
152334,1113 West Trinity Lane,Nashville,TN,37218
225232,8159 West 81st Avenue,Arvada,CO,80005
648429,421 West 1st Avenue,Anchorage,AK,99501
378677,3035 South Highway A1A,Melbourne Beach,FL,32951
661857,3041 West Marigold Drive,Fayetteville,AR,72704
315327,2200 East Victory Drive,Savannah,GA,31404
841127,903 East 20th Avenue,Anchorage,AK,99501
872788,449 15th Street Northeast,Washington,DC,20002
718025,146 Walnut Street,Manchester,CT,06040
885506,63 Summit Street,Manchester,CT,06040
165528,424 Callan Avenue,San Leandro,CA,94577
370566,5556 West Northview Avenue,Glendale,AZ,85301
299514,8043 Cranberry Street,Anchorage,AK,99502
439173,5104 West Tierra Buena Lane,Glendale,AZ,85306
212816,2560 Michigan Court,Panama City,FL,32405
405213,3179 18th Street Northwest,Washington,DC,20010
194538,332 Concord Avenue,Cambridge,MA,02138
375854,1226 Blossom Circle,Livermore,CA,94550
385255,7 Maple Hill Road,Aquinnah,MA,02535
449940,3904 October Woods Drive,Nashville,TN,37013
392038,627 Emerson Street Northwest,Washington,DC,20011
395512,701 West 36th Avenue,Anchorage,AK,99503
854336,249 Progress Drive,Manchester,CT,06042
968530,1254 Muldoon Road,Anchorage,AK,99504
975422,34 Harris Street,Brookline,MA,02446
211540,2285 Wold Run Drive,Fayetteville,AR,72704
540241,2436 Naples Avenue,Panama City,FL,32405
582965,14 Tranquil Place,Pooler,GA,31322
237211,261 East Old Hickory Boulevard,Nashville,TN,37115
549391,5201 North Miller Avenue,Oklahoma City,OK,73112
889136,7230 Montagne Circle,Anchorage,AK,99507
833494,6315 North Oro Vista Court,Litchfield Park,AZ,85340
581280,98 Lee Drive,Annapolis,MD,21403
392221,103 Fenwick Village Drive,Savannah,GA,31419
790134,2325 Eastridge Circle,Moore,OK,73160
414898,9605 West 62nd Place,Arvada,CO,80004
411392,4486 U.S. 5,Newport,VT,05855
581603,8277 Lamar Place,Arvada,CO,80003
153342,3616 Echo Lane,Nashville,TN,37218
568634,119 Antioch Pike,Nashville,TN,37211
251446,3031 Casa Drive,Nashville,TN,37214
170831,162 South Main Street,Stowe,VT,05672
472715,6789 West 70th Avenue,Arvada,CO,80003
958195,1040 University Avenue,Berkeley,CA,94710
121408,5821 Taft Street,Arvada,CO,80004
400558,2703 Woolsey Street,Berkeley,CA,94705
663313,120 Depot Street,Easton,MA,02375
547322,1515 Excelsior Avenue,Oakland,CA,94602
972209,11501 Maple Way,Louisville,KY,40229
109908,2309 Stearns Hill Road,Waltham,MA,02451
968125,210 Beachcomber Drive,Pismo Beach,CA,93449
729283,632 North Pine Street,Anchorage,AK,99508
734421,2195 Cantelou Road,Montgomery,AL,36108
955983,4 Stemson Way,Port Wentworth,GA,31407
890480,5516 West Indore Drive,Littleton,CO,80128
143877,645 Governor Bridge Road,Davidsonville,MD,21035
623389,2740 Collie Hill Way,Anchorage,AK,99504
127487,27 Church Street,Manchester,CT,06040
722496,129 Grant Street,Redlands,CA,92373
702948,4430 Davenport Street Northwest,Washington,DC,20016
775090,171 Tolland Turnpike,Manchester,CT,06042
607575,1744 Shoreham Drive,Montgomery,AL,36106
730980,40 Highwood Drive,Manchester,CT,06040
908596,21007 North 53rd Avenue,Glendale,AZ,85308
990067,4960 Paddock Club Drive,Montgomery,AL,36116
310709,2248 South Sutherland Drive,Montgomery,AL,36116
307471,1001 Northwest 104th Street,Oklahoma City,OK,73114
870649,23622 Greatland Drive,Anchorage,AK,99567
177279,311 Oak Street,Manchester,CT,06040
311425,22424 Birchwood Loop Road,Anchorage,AK,99567
974875,829 Main Street,Manchester,CT,06040
549058,41 Fairway Drive,Tewksbury,MA,01876
395806,23 Florida Avenue Northeast,Washington,DC,20002
274538,6721 Boundary Run,Nashville,TN,37221
697564,313 Lone Oak Drive,Norman,OK,73071
288218,1559 Alabama Avenue Southeast,Washington,DC,20032
608530,5125 North 58th Avenue,Glendale,AZ,85301
223051,8521 Crystal Street,Anchorage,AK,99502
219700,6120 Southeast 84th Street,Oklahoma City,OK,73135
462191,165 Quincy Shore Drive,Quincy,MA,02171
184185,10749 West Kaler Drive,Glendale,AZ,85307
398452,813 Holt Grove Court,Nashville,TN,37211
919578,3313 East Tecumseh Road,Norman,OK,73071
536077,7002 South Bryant Avenue,Oklahoma City,OK,73149
379766,332 33rd Avenue North,Nashville,TN,37209
575278,104 Bennington Street,Lawrence,MA,01841
279727,1011 Irving Street Northeast,Washington,DC,20017
315963,112 Walnut Street,Reading,MA,01867
127698,5329 A Street,Greeley,CO,80634
682901,4821 Milner Drive,Nashville,TN,37211
598839,33 South Hill Avenue,Fayetteville,AR,72701
699271,2917 Miramar Drive,Fayetteville,AR,72704
974827,405 Savannah Park Way,Panama City Beach,FL,32407
489916,6800 West Bell Road,Glendale,AZ,85308
593280,6741 West Robert E Lee Street,Glendale,AZ,85308
844646,1230 Stafford Drive,Montgomery,AL,36117
704292,31 Buckland Hills Drive,Manchester,CT,06042
563151,584 Westford Street,Lowell,MA,01851
857933,1364 Capri Drive,Panama City,FL,32405
446386,210 Depot Street,Woodford,VT,05201
800023,329 Mill Road,Montpelier,VT,05602
748954,264 Crest Drive,Soldotna,AK,99669
214764,3959 Fairlands Drive,Pleasanton,CA,94588
997784,396 Berkshire Drive,Riva,MD,21140
750240,123 Blossom Road,Westport,MA,02790
584305,2686 Avery Park Drive,Nashville,TN,37211
970079,600 12th Avenue South,Nashville,TN,37203
745266,2A Cleveland Park Rd,Freetown,MA,02717
938067,11113 North Miller Avenue,Oklahoma City,OK,73120
311502,3534 Saint Lawrence Road,Nashville,TN,37080
143642,1383 Purdue Street,San Leandro,CA,94579
596967,5102 Ander Drive,Brentwood,TN,37027
305151,813 Linda Lane,Panama City Beach,FL,32407
970478,4329 Howe Street,Oakland,CA,94611
756300,150 Somersby Boulevard,Pooler,GA,31322
444617,4726 West Palmaire Avenue,Glendale,AZ,85301
497118,1701 18th Avenue South,Nashville,TN,37212
369126,4216 Winter Lake Drive,Louisville,KY,40272
839376,119 Matthew Lane,Nashville,TN,37215
953545,8757 Lamar Circle,Arvada,CO,80003
735623,123 Remember Baker Lane,Hartford,VT,05001
807948,21 Hill Street,Barre,VT,05641
216436,2001 Van Hoose Drive,Fayetteville,AR,72701
790081,1106 Homer Avenue,Savannah,GA,31405
263313,9321 Amy Lane,Panama City Beach,FL,32407
211010,243 Kentucky Avenue,Pasadena,MD,21122
976486,7416 West Maryland Avenue,Glendale,AZ,85303
840036,22 Star Farms Drive,Manchester,CT,06040
446663,4182 North Valley Lake Drive,Fayetteville,AR,72703
471896,716 O Street,Anchorage,AK,99501
452781,2817 3rd Street,Thunderbolt,GA,31404
778178,1460 Berger Street,Odenton,MD,21113
962997,1405 Mercedes Avenue,Panama City,FL,32401
406962,2441 Chase Park Drive,Montgomery,AL,36110
201435,126 Marjorie Lane,Manchester,CT,06042
816633,1002 Cedar Ridge Court,Annapolis,MD,21403
451715,3415 Bog Road,Belvidere,VT,05442
724996,529 Wesley Avenue,Nashville,TN,37207
595119,4617 East 3rd Street,Panama City,FL,32404
263802,5444 Nicole Boulevard,Panama City,FL,32404
330238,1380 Quincy Street Northwest,Washington,DC,20011
477392,6851 Howard Avenue,Anchorage,AK,99504
135033,5985 Lamar Street,Arvada,CO,80003
426450,703 Elizabeth Barcus Way,Fortuna,CA,95540
762906,1622 Orchard Avenue,Louisville,KY,40213
191615,3500 Blanchard Drive Southwest,Washington,DC,20032
856992,505 North Washington Avenue,Fayetteville,AR,72701
572500,17433 Teklanika Drive,Anchorage,AK,99577
549950,4300 Kansas Avenue Northwest,Washington,DC,20011
724232,9403 Fairground Road,Louisville,KY,40291
680373,2508 Grant Avenue,Panama City,FL,32405
473437,1265 Southeast 23rd Terrace,Oklahoma City,OK,73129
540356,243 Orchard Road,Burke,VT,05832
779494,275 Ridge Lane,Waltham,MA,02452
808329,184 Woodland Street,Manchester,CT,06042
371053,736 Sicard Street Southeast,Washington,DC,20003
274639,7968 Newman Street,Arvada,CO,80005
643921,208 Southeast 19th Street,Oklahoma City,OK,73129
144489,3413 Pheasant Run Road,Norman,OK,73072
622067,801 Dale Road,Glen Burnie,MD,21060
398740,8801 North 63rd Drive,Glendale,AZ,85302
817065,19 Katama Way,Pooler,GA,31322
343212,2113 Bowen Drive,Montgomery,AL,36106
863046,406 Ashwood Court,Vacaville,CA,95688
442178,133 White Cap Way,Panama City Beach,FL,32407
909645,253 Colt Drive,Nashville,TN,37221
417925,10312 Parlett Place,Cupertino,CA,95014
665506,2209 East Manor Drive,Fayetteville,AR,72701
502175,7841 North 59th Lane,Glendale,AZ,85301
217109,302 Tuten Avenue,Savannah,GA,31415
687499,1101 Lotus Avenue,Glen Burnie,MD,21061
232647,9222 Sandra Grace Road,Southport,FL,32409
816562,8522 Ingalls Circle,Arvada,CO,80003
851619,341 West Tudor Road,Anchorage,AK,99503
852977,597 East Miracle Drive,Fayetteville,AR,72701
887093,108 Springer Lane,Yarmouth,MA,02673
332232,11865 West 74th Avenue,Arvada,CO,80005
704621,3446 Northwest 48th Street,Oklahoma City,OK,73112
216500,3147 West Old Farmington Road,Fayetteville,AR,72704
334460,22219 Panama City Beach Parkway,Panama City Beach,FL,32413
228736,584 Rural Hill Road,Nashville,TN,37217
445487,5928 West Mauna Loa Lane,Glendale,AZ,85306
896002,8320 Cloud Street,Laurel,MD,20724
536511,811 River Dell Drive,Louisville,KY,40206
804340,13116 West Palo Verde Drive,Litchfield Park,AZ,85340
688523,75 Wilfred Road,Manchester,CT,06040
997154,1439 2nd Street,Panama City,FL,32409
162386,5 Winslow Circle,Pooler,GA,31322
815000,106 Camelot Drive,Plymouth,MA,02360
703739,1021 Heathfield Circle,Brentwood,TN,37027
233273,600 Marshall Street,Louisville,KY,40202
786152,129 Glen Street,West Brattleboro,VT,05301
178534,3415 Brookdale Drive,Santa Clara,CA,95051
326361,15771 West 64th Avenue,Arvada,CO,80403
129256,5605 North Terry Avenue,Oklahoma City,OK,73111
757151,18687 County Road 97,Woodland,CA,95695
623424,800 Old Stage Road,Glen Burnie,MD,21061
430879,207 Maple Hill Road,Shaftsbury,VT,05262
937920,13525 West Stella Lane,Litchfield Park,AZ,85340
349337,13501 Vasili Drive,Anchorage,AK,99577
752160,875 Latouche Street,Anchorage,AK,99501
242136,7800 River Mist Avenue,Bakersfield,CA,93313
894966,1429 Harrison Avenue,Panama City,FL,32401
565182,6725 Pamela Court,Montgomery,AL,36116
913898,353 Cotswold Cmns,Norman,OK,73072
369257,6500 Park Club Circle,Louisville,KY,40229
476482,3 Kimball Street,Marblehead,MA,01945
346715,6221 Allison Street,Arvada,CO,80004
542196,3138 P Street Northwest,Washington,DC,20007
766474,322 East Taylor Street,Savannah,GA,31401
767418,3522 Whiting Avenue,Montgomery,AL,36105
836316,928 Wright Avenue,Mountain View,CA,94043
518640,4108 Kogru Place,Anchorage,AK,99577
274253,218 Oleander Drive,Panama City Beach,FL,32413
482018,421 Madison Street Northeast,Washington,DC,20011
536749,2500 Snowdoun Chambers Road,Montgomery,AL,36105
221766,1900 West Virginia Avenue Northeast,Washington,DC,20002
884123,654 Laurette Place,Hayward,CA,94544
834490,804 Old Coach Place,Nashville,TN,37076
947718,711 Tatem Street,Savannah,GA,31405
951497,6434 Wright Street,Arvada,CO,80004
802645,401 East Northern Lights Boulevard,Anchorage,AK,99503
428026,982 Stonington Drive,Arnold,MD,21012
993832,65 Hilltop Lane,McKinleyville,CA,95519
104908,1345 G Street Southeast,Washington,DC,20003
217182,200 Redwood Road,Manchester,CT,06040
379745,16772 West 70th Avenue,Arvada,CO,80007
843272,1417 Stoneykirk Road,Pelham,AL,35124
645383,2057 Lucas Street,Montgomery,AL,36107
857043,1636 Church Street Northwest,Washington,DC,20036
275107,2034 Fairfax Road,Annapolis,MD,21401
329121,7817 Moose Run Circle,Anchorage,AK,99507
794231,234 East Beach Drive,Panama City,FL,32401
910411,1814 US Highway 98,Mexico Beach,FL,32456
363120,5836 Red Barn Road,Montgomery,AL,36116
788994,31250 Courthouse Drive,Union City,CA,94587
564753,178 Old Homestead Road,Danville,VT,05873
540928,394 Hilltop Lane,Annapolis,MD,21403
673293,72 Bentley Avenue,Poultney,VT,05764
181806,505 Southeast 32nd Street,Oklahoma City,OK,73129
664560,29 Vista Flores,Pleasanton,CA,94566
362263,294 East Lakeshore Drive,Colchester,VT,05446
349592,718 Dutchmans Court,Nashville,TN,37076
356478,1738 Annabellas Drive,Panama City Beach,FL,32407
100241,3001 Spyglass Hill Road,Edmond,OK,73034
321787,5038 North Cimarron Drive,Beverly Hills,FL,34465
840009,110 Oxford Road,Savannah,GA,31419
365919,716 Waller Road,Brentwood,TN,37027
463868,3469 North Par Court,Fayetteville,AR,72703
516647,1630 Eton Way,Crofton,MD,21114
732220,1504 East 55th Street,Savannah,GA,31404
381222,9106 Ellis Way,Arvada,CO,80005
227540,6424 Simms Street,Arvada,CO,80004
663696,152 Bissell Street,Manchester,CT,06040
208208,503 Blackwood Terrace Southeast,Calhoun,GA,30701
486474,5630 Silverado Way,Anchorage,AK,99518
584626,5 Hibiscus Avenue,Savannah,GA,31404
294856,1311 Durrett Lane,Louisville,KY,40213
361710,4742 Bellevue Avenue,Louisville,KY,40215
737607,1908 Newton Street Northeast,Washington,DC,20018
386391,4971 Janet Court,Livermore,CA,94550
298269,204 Blue Hills Drive,Nashville,TN,37214
161833,9134 Brook Park Drive,Montgomery,AL,36117
124727,7966 Chase Circle,Arvada,CO,80003
452086,4876 Norris Road,Fremont,CA,94536
104552,70 Orchard Shore Road,Colchester,VT,05446
569734,1656 Newton Street Northwest,Washington,DC,20010
637156,21 Longview Bluff Drive East,Savannah,GA,31419
528521,1822 Dixdale Avenue,Louisville,KY,40210
420160,6436 Stoney Point Road,Panama City,FL,32404
883915,802 Virginia Avenue,Lynn Haven,FL,32444
610733,93 Hamlin Street,Manchester,CT,06040
927405,2931 Shady Oaks Drive,Evans,CO,80620
737083,4738 Mallard Common,Fremont,CA,94555
526362,4313 Wisconsin Street,Anchorage,AK,99517
422244,1695 Archer Street,Savannah,GA,31405
517386,5208 Colorado Avenue Northwest,Washington,DC,20011
259482,1803 Hickory Avenue,Panama City,FL,32405
835316,57 Hidden Lake Court,Savannah,GA,31419
552623,5330 Shaun Circle,Anchorage,AK,99507
786333,91 Rushforde Drive,Manchester,CT,06040
123989,115 Waddell Road,Manchester,CT,06040
438590,1909 Wainwright Avenue,Panama City,FL,32405
680143,3623 Chateau Lane,Louisville,KY,40219
467331,5715 Saint Matthew Drive,Newark,CA,94560
653996,2008 North Shannon Drive,Fayetteville,AR,72703
474024,511 Norton Avenue,Nashville,TN,37207
553775,37 Spring Street,Groton,CT,06340
538963,992 Sherwood Forest Road,Annapolis,MD,21401
363309,1481 Stannage Avenue,Berkeley,CA,94702
973468,4319 West Claremont Street,Glendale,AZ,85301
883323,11941 West 58th Avenue,Arvada,CO,80002
258691,58 North U.S.A Drive,Fayetteville,AR,72701
354962,6483 West 76th Avenue,Arvada,CO,80003
619105,1428 Flatwood Court,Crofton,MD,21114
930856,1109 East 35th Street,Savannah,GA,31404
489786,3722 Kisling Loop,Tyndall Air Force Base,FL,32403
922916,1421 Floral Street Northwest,Washington,DC,20012
237889,1236 Southwest 49th Street,Oklahoma City,OK,73109
782712,220 Avenue B,Williston,VT,05495
347960,697 Parker Street,Manchester,CT,06042
590680,233 Juniper Drive,South Burlington,VT,05403
507884,6460 Lacrosse Lane,Glen Burnie,MD,21061
719787,36360 Beech Place,Newark,CA,94560
281001,141 Parker Road,Pittsford,VT,05763
274955,1303 Kearny Street Northeast,Washington,DC,20017
470081,13360 West 83rd Place,Arvada,CO,80005
268565,5130 Morris Way,Fremont,CA,94536
336361,97 Lincoln Street,Fitchburg,MA,01420
204325,33300 Mission Boulevard,Union City,CA,94587
683269,756 Neponset Street,Norwood,MA,02062
811427,44 Campfield Road,Manchester,CT,06040
852694,1666 South Summer Rose Avenue,Fayetteville,AR,72701
224943,223 Goose Pond Road,Fairfax,VT,05454
687382,8293 Grayson Grove,Montgomery,AL,36117
859518,620 Veta Avenue,Pueblo,CO,81004
578670,4207 Ranch Drive,Edmond,OK,73013
408850,8415 Running Spring Drive,Louisville,KY,40241
943716,241 Braxton Way,Edgewater,MD,21037
414897,23 Cove Drive,Savannah,GA,31419
222469,6108 Iris Way,Arvada,CO,80004
398408,219 Shana Road,Glen Burnie,MD,21060
618891,218 Saint Antons Way,Arnold,MD,21012
405676,430 Fig Street,Madera,CA,93638
922116,65 Arcellia Drive,Manchester,CT,06042
442024,2522 Fountain Avenue,South Lake Tahoe,CA,96150
762733,4807 North Grove Avenue,Warr Acres,OK,73122
581293,2426 East Onyx Trail,Fayetteville,AR,72701
252648,1302 Cherry Street,Panama City,FL,32401
186402,321 Kentucky Avenue Southeast,Washington,DC,20003
952198,595 West 15th Street,Fayetteville,AR,72701
824790,203 East Gwinnett Street,Savannah,GA,31401
354821,319 Elderwood Court,Annapolis,MD,21409
331787,22825 Paseo Place,Hayward,CA,94541
916677,12493 West 84th Circle,Arvada,CO,80005
213235,115 Maple Street,Manchester,CT,06040
216219,25 Morton Street,Quincy,MA,02169
785118,461 Alder Street,Eureka,CA,95503
375122,549 Elysian Fields Road,Nashville,TN,37211
185588,9636 Morar Road,Panama City,FL,32409
517613,107 Guaymas Place,Davis,CA,95616
457298,4936 Sequoia Avenue,Dublin,CA,94568
870303,7250 Urban Drive,Arvada,CO,80005
213768,80 Locust Avenue,Worcester,MA,01604
304752,5624 Oakes Drive,Brentwood,TN,37027
869985,2654 Quiet Water Cove,Annapolis,MD,21401
534672,7018 Russell Court,Arvada,CO,80007
848153,2636 Knollwood Drive,Montgomery,AL,36116
223312,1205 Southwest 128th Street,Oklahoma City,OK,73170
767437,12610 Webber Road,Fountain,FL,32438
496217,102 East Cydnee Street,Fayetteville,AR,72703
818290,7419 West Hill Lane,Glendale,AZ,85310
937977,3810 Camp Ground Road,Louisville,KY,40211
646891,1699 Chatham Parkway,Savannah,GA,31405
803367,7573 National Drive,Livermore,CA,94550
638435,5906 Milton Avenue,Deale,MD,20751
258461,23501 Ida Lane,Hayward,CA,94541
105749,2100 Sandy Creek Trail,Edmond,OK,73013
831750,1256 Talbert Street Southeast,Washington,DC,20020
975186,856 Milton Street,Oakland,CA,94607
693167,1208 Lindenwood Drive,Panama City,FL,32405
683987,35 Pilot Knob Lane,Telluride,CO,81435
276833,6460 Vermont 113,Vershire,VT,05079
960560,2224 East Tall Oaks Drive,Fayetteville,AR,72703
478170,13417 West Marlette Court,Litchfield Park,AZ,85340
164954,6206 Waters Avenue,Savannah,GA,31406
182063,111 Rosemary Street,Brockton,MA,02302
846326,8063 Regency Drive,Pleasanton,CA,94588
425918,5721 Frank Hough Road,Panama City,FL,32404
864230,119 Redwood Road,Manchester,CT,06040
606999,1414 West 7th Avenue,Anchorage,AK,99501
373883,3072 The Alameda,Concord,CA,94519
456582,6730 North 59th Drive,Glendale,AZ,85301
997605,849 East Victoria Street,Carson,CA,90746
810381,324 East Drive,Montgomery,AL,36113
664827,2223 North Fernwood Court,Savannah,GA,31404
458038,3635 Bisquier Drive,Anchorage,AK,99508
982471,3815 Williams Street,Anchorage,AK,99508
809451,110 Seaton Place Northwest,Washington,DC,20001
269534,26563 Chisholm Court,Hayward,CA,94544
968385,2410 Pafford Drive,Nashville,TN,37206
591764,8380 West 67th Avenue,Arvada,CO,80004
159890,517 Copperfield Way,Brentwood,TN,37027
797175,1713 Apian Way,Edmond,OK,73003
115079,923 K Street Northeast,Washington,DC,20002
981561,1044 Stokes Road,Montgomery,AL,36110
447152,2504 Longest Avenue,Louisville,KY,40204
673912,1425 Claremont Circle,Savannah,GA,31415
533341,6201 West Olive Avenue,Glendale,AZ,85302
834034,5644 Kipling Parkway,Arvada,CO,80002
855482,1508 Massachusetts Avenue Southeast,Washington,DC,20003
761610,2552 Massachusetts Avenue Northwest,Washington,DC,20008
368805,119 Oakland Street,Manchester,CT,06042
566254,47634 Kato Road,Fremont,CA,94538
806016,103 Razz Way,Panama City Beach,FL,32408
213611,5843 West McLellan Road,Glendale,AZ,85301
912045,8556 Nelson Court,Arvada,CO,80005
416550,4 Chamois Court,Pooler,GA,31322
441747,566 Middle Turnpike East,Manchester,CT,06040
659983,1030 Shawnee Street,Savannah,GA,31419
421940,190 Church Street,Burlington,VT,05401
607681,1124 Frederick Douglass Avenue,Oklahoma City,OK,73117
981743,1915 Southeast 29th Street,Oklahoma City,OK,73129
583603,1497 Greenbrier Road,West Sacramento,CA,95691
609922,9903 West 53rd Place,Arvada,CO,80002
298202,6862 North 44th Avenue,Glendale,AZ,85301
469906,8446 Coors Loop,Arvada,CO,80005
992162,1761 Thousand Oaks Boulevard,Berkeley,CA,94707
937479,741 Amity Lane,Montgomery,AL,36117
700135,1309 Columbia Road Northwest,Washington,DC,20009
620290,882 Plantation Way,Montgomery,AL,36117
931604,86 Russell Street,Manchester,CT,06040
816364,5472 Sunstar Common,Fremont,CA,94555
622208,302 Elberta Street,Nashville,TN,37210
788134,206 Blue Marlin Drive,Savannah,GA,31410
235950,557 West Willoughby Road,Fayetteville,AR,72701
755399,5306 Ritchie Highway,Baltimore,MD,21225
232692,5 Tranquil Place,Pooler,GA,31322
925214,40 Strawberry Lane,Manchester,CT,06040
121616,26 Wetherell Street,Manchester,CT,06040
800576,194 North Main Street,Webster,MA,01570
928704,2809 Briarcliff Road,Panama City,FL,32405
674206,178 Phillips Road,Bourne,MA,02532
920265,1217 Cottondale Road,Montgomery,AL,36109
632957,4 Conti Circle,Barre,VT,05641
486638,5309 Darling Hill Road,Burke,VT,05871
803285,1418 Paddocks Court,Crownsville,MD,21032
494120,4696 Bull Run Road,Ashland City,TN,37015
603958,4000 Albemarle Street Northwest,Washington,DC,20016
143699,91 Hoague Drive,Highgate,VT,05459
141077,2903 West 31st Avenue,Anchorage,AK,99517
127115,305 Becket Avenue,Louisville,KY,40118
787559,1742 Allerford Drive,Hanover,MD,21076
608843,244 La Normandy Drive,Louisville,KY,40223
824396,9009 West Nicolet Avenue,Glendale,AZ,85305
413336,3466 Southview Avenue,Montgomery,AL,36111
429218,5628 West Tonopah Drive,Glendale,AZ,85308
947593,6101 North 60th Avenue,Glendale,AZ,85301
393290,4001 19th Place Northeast,Washington,DC,20018
254204,2443 Sierra Nevada Road,Mammoth Lakes,CA,93546
853514,4341 Ponds Street Northeast,Washington,DC,20019
515101,1361 Barret Park Way,Montgomery,AL,36117
334647,505 Tarpon Street,Panama City Beach,FL,32413
191492,4339 Oak Street,Montgomery,AL,36105
143562,702 Farragut Street Northwest,Washington,DC,20011
298195,7650 West 68th Avenue,Arvada,CO,80004
214403,9545 West 74th Avenue,Arvada,CO,80005
421146,4 Eastview Lane,Savannah,GA,31410
790142,7720 Allison Street,Arvada,CO,80005
344954,238 Brookley Avenue Southwest,Washington,DC,20373
443773,137 East 53rd Avenue,Anchorage,AK,99518
727555,1841 Logan Street,Anchorage,AK,99508
169454,1314 89th Avenue,Oakland,CA,94621
150153,57 Bremer Drive,Glen Burnie,MD,21061
773692,6040 West Kings Avenue,Glendale,AZ,85306
563617,463 Pecan Tree Drive,Montgomery,AL,36109
130907,3194 Bladensburg Road Northeast,Washington,DC,20018
682695,8398 West Denton Lane,Glendale,AZ,85305
582143,19259 North 61st Drive,Glendale,AZ,85308
421937,404 Dewey Street,Woodford,VT,05201
769460,95 Briarwood Drive,Manchester,CT,06040
391628,4313 Bylsma Circle,Panama City,FL,32404
119435,445 Industrial Lane,Barre,VT,05641
446201,2732 North Ashbrook Drive,Fayetteville,AR,72703
996497,123 Villa View Court,Brentwood,TN,37027
268056,1309 Clay Avenue,Panama City,FL,32401
771467,23 Whitcomb Street,Springfield,VT,05156
100543,24 Lambert Street,Medford,MA,02155
723424,212 Holiday Circle,Savannah,GA,31419
741091,2130 Loren Circle,Fayetteville,AR,72701
538360,2944 Sheldon Jackson Street,Anchorage,AK,99508
309972,3365 South Cato Springs Road,Fayetteville,AR,72701
556747,1328 Jenks Avenue,Panama City,FL,32401
676019,4525 West Frier Drive,Glendale,AZ,85301
324341,6820 West 84th Circle,Arvada,CO,80003
169620,81 Reynolds Drive,Colchester,VT,05446
550603,8597 Bay Road,Pasadena,MD,21122
469291,130 Carolina Cherry Circle,Pooler,GA,31322
317424,5927 Camrose Drive,Anchorage,AK,99504
288923,110 Central Junction Boulevard,Savannah,GA,31405
439828,179 Blue Ridge Drive,Manchester,CT,06040
816099,4113 Holiday Drive,Panama City,FL,32408
370264,814 Miner Road,Crownsville,MD,21032
579024,9030 Pennington PIace,Montgomery,AL,36117
473192,7003 9th Street Northwest,Washington,DC,20012
690369,26 Garfield Street,Bristol,VT,05443
398581,6005 Tamarack Drive,Montgomery,AL,36117
835773,1583 Elberta Court,Severn,MD,21144
206710,12403 Deerfield Road,Savannah,GA,31419
588930,320 Union Station Way,Calera,AL,35040
783899,10 South Main Street,Fair Haven,VT,05743
246278,6653 West Rose Garden Lane,Glendale,AZ,85308
504076,1709 Southeast 51st Street,Oklahoma City,OK,73129
830732,8302 Star Point Court,Prospect,KY,40059
108996,9 Montello Street,Brockton,MA,02301
810610,105 Courtland Drive,Montgomery,AL,36105
293410,15847 West 74th Place,Arvada,CO,80007
660875,7701 West Saint John Road,Glendale,AZ,85308
828960,7047 Vinson Road,Panama City,FL,32413
394590,8726 Downey Road,Severn,MD,21144
661332,406 North Hammonds Ferry Road,Linthicum Heights,MD,21090
477666,1718 Underwood Road,Gambrills,MD,21054
740694,814 South Pickard Avenue,Norman,OK,73069
291501,631 West 32nd Avenue,Anchorage,AK,99503
816724,189 Dalton Avenue,Pittsfield,MA,01201
320713,1710 Monroe Street Northeast,Washington,DC,20018
790359,503 Early Street,Savannah,GA,31405
163464,126 Garth Road,Manchester,CT,06040
107539,4107 East 68th Avenue,Anchorage,AK,99507
422935,415 Lullwater Drive,Panama City Beach,FL,32413
709422,430 Cornish Drive,Nashville,TN,37207
696844,10911 Torrington Road,Louisville,KY,40272
248378,2115 Honeysuckle Drive,Panama City,FL,32404
350274,174 Village Lake Drive,Pooler,GA,31322
138440,6116 West Charter Oak Road,Glendale,AZ,85304
381841,1992 West Street,Brookfield,VT,05036
129056,1101 West 48th Street,Savannah,GA,31405
743502,1163 Rosedale Drive,Montgomery,AL,36107
375149,622 Elaine Drive,Nashville,TN,37211
715125,2619 North Quality Lane,Fayetteville,AR,72703
528627,3652 East Blue Stone Drive,Fayetteville,AR,72764
499500,1485 Hampshire Hollow Road,Poultney,VT,05764
380229,1897 Poplar Ridge Road,Pasadena,MD,21122
634512,102 East Ash Road,Plymouth,VT,05056
961162,6095 Terry Lane,Golden,CO,80403
212116,4255 Tanager Common,Fremont,CA,94555
800888,7124 West Morrow Drive,Glendale,AZ,85308
725349,2456 22nd Avenue,Greeley,CO,80631
744955,500 Revere Beach Boulevard,Revere,MA,02151
231983,196 Ruth Street,Farmington,AR,72730
504951,22618 South Figueroa Street,Carson,CA,90745
649475,713 Millard Fuller Drive,Montgomery,AL,36110
238663,812 Southwest 151st Street,Oklahoma City,OK,73170
530516,19404 North 77th Avenue,Glendale,AZ,85308
173321,8347 Ames Way,Arvada,CO,80003
154559,37600 Sycamore Street,Newark,CA,94560
796010,8213 Northwest 65th Place,Oklahoma City,OK,73132
814389,327 Woodbridge Street,Manchester,CT,06042
864875,4667 Benning Road Southeast,Washington,DC,20019
738365,13415 Panama City Beach Parkway,Panama City Beach,FL,32407
126733,421 1/2 6th Street Southeast,Washington,DC,20003
971863,3323 Summerhill Drive,Fayetteville,AR,72703
618917,2649 Firewood Drive,Fayetteville,AR,72703
951506,218 Middle Street,Brighton,VT,05846
498622,2845 Zelda Road,Montgomery,AL,36106
279051,2098 Lower Newton Street,Saint Albans City,VT,05478
469600,1110 Okie Street Northeast,Washington,DC,20002
330866,2032 4th Street Northwest,Washington,DC,20001
870613,112 West Center Street,Fayetteville,AR,72701
898833,6080 Frontier Lane,Nashville,TN,37211
628784,227 Danyacrest Drive,Nashville,TN,37214
801441,205 North Henderson Bend Road Northwest,Calhoun,GA,30701
921540,3142 North Warwick Drive,Fayetteville,AR,72703
193578,1821 Catalpa Way,Hayward,CA,94545
725239,663 Chesapeake Way,Fayetteville,AR,72701
995155,3579 2nd Avenue,Edgewater,MD,21037
630648,83 Kennedy Road,Manchester,CT,06042
816333,1627 Connecticut Avenue Northwest,Washington,DC,20009
780081,5601 West Crocus Drive,Glendale,AZ,85306
952643,1637 Delphil Street,Pueblo,CO,81006
114205,6605 North 93RD Avenue,Glendale,AZ,85305
624048,112 Coleman Boulevard,Savannah,GA,31408
521197,5811 Crossings Boulevard,Nashville,TN,37013
563858,1601 Northwest 22nd Street,Oklahoma City,OK,73106
805176,89 Frances Drive,Manchester,CT,06040
890429,832 51st Street Northeast,Washington,DC,20019
362462,308 Woodleaf Court,Glen Burnie,MD,21061
790370,4250 North Valley Lake Drive,Fayetteville,AR,72703
822201,5114 Greentree Drive,Nashville,TN,37211
164911,2036 Hermitage Hills Drive,Gambrills,MD,21054
462359,31 Mitchell Road,Manchester,CT,06042
262706,40700 Penn Lane,Fremont,CA,94538
751573,105 Ridgecrest Court,Panama City,FL,32405
124326,1276 Bending Creek Drive,Nashville,TN,37013
874565,77 Weaver Road,Manchester,CT,06042
908043,450 Kinhawk Drive,Nashville,TN,37211
696354,15509 East 7th Circle,Aurora,CO,80011
659398,8398 West 62nd Place,Arvada,CO,80004
121892,225 Claude Street,Annapolis,MD,21401
728458,2014 Clemens Road,Oakland,CA,94602
673887,350 Woodbine Road,Shelburne,VT,05482
296266,2115 Longest Avenue,Louisville,KY,40204
470480,7770 West Bell Road,Glendale,AZ,85308
744741,113 Dove Lane,Savannah,GA,31406
848598,74 Bradford Road,Watertown,MA,02472
887680,5205 West Thunderbird Road,Glendale,AZ,85306
729156,4601 Reka Drive,Anchorage,AK,99508
514008,3835 Oakes Drive,Hayward,CA,94542
946911,1102 Spy Glass Drive,Arnold,MD,21012
705122,22649 McManus Drive,Anchorage,AK,99567
282227,65 Clark Street,Newton,MA,02459
417947,1261 Sioux Terrace,Nashville,TN,37115
423989,3607 R Street Northwest,Washington,DC,20007
259716,739 Center Street,Manchester,CT,06040
341925,8307 Brookline Place,Oklahoma City,OK,73159
576969,5581 Nolan Street,Arvada,CO,80002
544161,474 Merritt Avenue,Oakland,CA,94610
268737,570 Broadway,Lynnfield,MA,01940
714773,66 Troy Avenue,Colchester,VT,05446
777320,2162 Mulberry Hill Road,Annapolis,MD,21409
348835,6366 West Aurora Drive,Glendale,AZ,85308
980615,132 Tensaw Road,Montgomery,AL,36117
136122,8001 West 71st Avenue,Arvada,CO,80004
575003,3502 Cottage Cove Lane,Panama City,FL,32408
797618,1852 Cherry Road,Annapolis,MD,21409
620864,8112 Equestrian Drive,Severn,MD,21144
776235,6928 North 87th Lane,Glendale,AZ,85305
560345,908 Lodge Hill Road,Louisville,KY,40223
649349,7613 Yule Court,Arvada,CO,80007
581631,9331 Edison Road,Lithia,FL,33547
362710,55 Armory Street,Quincy,MA,02169
510409,2209 June Drive,Nashville,TN,37214
130842,900 North Leverett Avenue,Fayetteville,AR,72701
715735,702 Plantation Circle,Panama City,FL,32404
756851,521 East 4th Street,Panama City,FL,32401
480026,6413 Kendall Street,Arvada,CO,80003
186143,4132 Northwest 57th Street,Oklahoma City,OK,73112
616193,78 Cliffside Drive,Manchester,CT,06042
105473,6950 Reno Drive,Arvada,CO,80002
274713,117 East Cook Avenue,Anchorage,AK,99501
924966,1317 Allison Street Northeast,Washington,DC,20017
155653,4074 North Sunflower Circle,Fayetteville,AR,72703
749850,4214 Ashleywood Court,Louisville,KY,40241
497056,1801 Dodge Trail,Edmond,OK,73003
696672,2013 Talbot Terrace,Montgomery,AL,36106
740570,4432 Cobalt Drive,Harwood,MD,20776
987884,5434 Cedar Ash Crossing,Nashville,TN,37013
240386,1607 Louisiana Avenue,Panama City,FL,32405
412544,2716 30th Street Southeast,Washington,DC,20020
913058,6985 Woodstock Road,Hartford,VT,05001
823808,4136 East Virginia Lane,Montgomery,AL,36116
736438,1693 Alice Court,Annapolis,MD,21401
734719,1532 Milvia Street,Berkeley,CA,94709
160500,7106 Bear Creek Drive,Saint Matthews,KY,40207
535737,55 Sunrise Avenue,Moretown,VT,05660
122200,5415 Frank Hough Road,Panama City,FL,32404
895017,341 Oakland Street,Manchester,CT,06042
950934,405 Flint Ridge Court,Norman,OK,73072
960156,8573 North 63rd Drive,Glendale,AZ,85302
647949,43 Henderson Avenue,Savannah,GA,31406
700035,6007 Applegate Lane,Louisville,KY,40219
503370,732 Kevin Court,Oakland,CA,94621
244441,718 Newhall Drive,Nashville,TN,37206
660265,44 Elm Street,East Longmeadow,MA,01028
983461,5420 Allison Street,Arvada,CO,80002
621934,89 High Ledge Circle,Manchester,CT,06040
431420,1709 Travers Court,Edmond,OK,73003
794455,7509 Linda Lane,Panama City,FL,32404
882472,5620 Lilly Street,Panama City,FL,32404
242730,12283 Thomas Lane,Yucaipa,CA,92399
978734,1223 Delaware Avenue,Deale,MD,20733
451699,4604 West 19th Court,Panama City,FL,32405
498400,5055 West 58th Avenue,Arvada,CO,80002
966464,5959 North 55th Avenue,Glendale,AZ,85301
287830,6620 North 61st Drive,Glendale,AZ,85301
434177,1164 Middle Turnpike West,Manchester,CT,06040
677938,2107 Elfen Glen,Van Buren,AR,72956
112082,52 Linnmore Drive,Manchester,CT,06040
587415,4253 San Juan Avenue,Fremont,CA,94536
194669,616 Bush Hill Road,Manchester,CT,06040
604274,5929 West Via Montoya Drive,Glendale,AZ,85310
197397,308 School Avenue,Panama City,FL,32401
212869,409 Snook Lane,Panama City Beach,FL,32408
671157,8262 Elvaton Road,Millersville,MD,21108
235057,1731 West 18th Street,Fayetteville,AR,72701
917065,45 Parsons Avenue,Saint Albans City,VT,05478
238525,4418 15th Street Northwest,Washington,DC,20011
685784,5609 Colorado Avenue Northwest,Washington,DC,20011
789302,7326 North 62nd Avenue,Glendale,AZ,85301
166302,378 Bonny Street,Grand Junction,CO,81501
499633,501 Running Creek Place,Louisville,KY,40243
842433,6823 Forsythe Drive,Panama City,FL,32404
671837,6950 West Nicolet Avenue,Glendale,AZ,85303
525290,2008 Aberdeen Drive,Crofton,MD,21114
319312,555 North Dupont Avenue,Nashville,TN,37115
348385,971 Zenith Loop,Fayetteville,AR,72701
160961,122 East Hayes Street,Norman,OK,73069
700175,5 Yerxa Road,Cambridge,MA,02140
482829,6702 Johnny Mercer Boulevard,Savannah,GA,31410
780659,9110 North 63rd Drive,Glendale,AZ,85302
654406,800 West Street,Panama City,FL,32404
879301,2375 Main Street,Palmer,MA,01069
654643,740 East 34th Street,Savannah,GA,31401
336284,2068 Happy Lane,Crofton,MD,21114
291191,1405 Monroe Street Northeast,Washington,DC,20017
459008,2765 North Barcelona Avenue,Fayetteville,AR,72703
170833,222 Rockcrest Way,Louisville,KY,40245
922161,4924 West 65th Avenue,Arvada,CO,80003
121422,4695 East Huntsville Road,Fayetteville,AR,72701
975912,4308 Princess Lane,Nashville,TN,37218
995259,37122 Contra Costa Avenue,Fremont,CA,94536
386954,1 North School Avenue,Fayetteville,AR,72701
442464,16040 North 67th Drive,Peoria,AZ,85382
824430,545 East Muhammad Ali Boulevard,Louisville,KY,40202
817095,147 Willow Ridge Lane,Indian Springs Village,AL,35124
880884,5000 V Street Northwest,Washington,DC,20007
811607,1771 Daisey Court,Millersville,MD,21108
889569,9101 Vanguard Drive,Anchorage,AK,99507
706686,22207 Quinterno Court,Cupertino,CA,95014
137556,12 Fletcher Lane,Shelburne,VT,05482
691707,1211 Castine Court,Pasadena,MD,21122
251986,1136 Northwest 31st Street,Oklahoma City,OK,73118
246897,1537 Northwest 123rd Street,Oklahoma City,OK,73120
402147,3578 Galindo Street,Oakland,CA,94601
625494,2829 31st Street Northwest,Washington,DC,20008
712399,19803 North Mitkof Loop,Anchorage,AK,99577
450169,11 Alden Court,Roseville,CA,95678
385105,2650 East Huntsville Road,Fayetteville,AR,72701
677903,827 10th Street Northeast,Washington,DC,20002
882837,8315 Surf Drive,Panama City Beach,FL,32408
170205,4305 Willowview Boulevard,Louisville,KY,40299
329963,642 Sagamore Drive,Montgomery,AL,36109
352383,10841 Sutter Circle,Sutter Creek,CA,95685
170801,10367 West 55th Place,Arvada,CO,80002
425978,833 50th Place Northeast,Washington,DC,20019
216349,3111 West Ika Lane,Fayetteville,AR,72704
989449,901 Samson Road,Saint Albans City,VT,05478
899970,700 Towering Oak Court,Glen Burnie,MD,21061
853931,8785 Ellis Court,Arvada,CO,80005
633138,6450 West Bethany Home Road,Glendale,AZ,85301
647656,30544 Whitmore Road,Whitmore,CA,96096
797404,7730 Wilkinson Road,Nashville,TN,37080
464550,4221 Thompson Avenue,Anchorage,AK,99508
262802,15082 North 59th Avenue,Glendale,AZ,85306
636948,2732 Rosedale Place,Nashville,TN,37211
436614,6143 Prosperity Drive,Anchorage,AK,99504
715839,2036 Gorgas Street,Montgomery,AL,36106
300046,1129 I Street,Anchorage,AK,99501
650675,55620 Jolon Road,King City,CA,93930
170101,309 Brooke Court,Panama City,FL,32404
494952,1217 Southwest 91st Street,Oklahoma City,OK,73139
250034,5370 Business Park Drive,Montgomery,AL,36116
487434,4221 U.S. 5,Burke,VT,05871
312700,945 South 5th Street,Louisville,KY,40203
493949,605 Main Street,Watertown,MA,02472
572046,5024 Ryan Drive,Oklahoma City,OK,73135
206832,313 Monroe Street,Montgomery,AL,36104
810536,22825 North 74th Lane,Glendale,AZ,85310
456049,56 Daley Lane,Castleton,VT,05732
950504,1842 West Park Place,Oklahoma City,OK,73106
320052,12371 Atlanta Highway,Montgomery,AL,36117
257421,408 Pine Street,Bloomingdale,GA,31302
805826,295 Townes Drive,Nashville,TN,37211
501644,4032 Windwood Lane,Nashville,TN,37214
424901,345 Tattnall Street,Savannah,GA,31401
672757,25793 Durrwood Court,Castro Valley,CA,94552
934191,1422 North Dawn Drive,Fayetteville,AR,72703
788545,325 Joseph Circle,Southport,FL,32409
493055,5803 West Gelding Drive,Glendale,AZ,85306
403710,37 Kensington Street,Manchester,CT,06040
580826,2276 West Woodley Square,Montgomery,AL,36116
581074,266 South J Street,Livermore,CA,94550
878237,3949 Ethan Allen Highway,Saint Albans City,VT,05478
594792,404 Middle Turnpike West,Manchester,CT,06040
370773,1124 Bluewillow Court,Nashville,TN,37013
320334,1649 Timberridge Court,Fayetteville,AR,72704
857245,915 Sacramento Street,Bakersfield,CA,93305
887239,12901 Mission Circle,Anchorage,AK,99516
665439,18 Densmore Drive,Essex,VT,05452
974962,788 Williamson Road,Montgomery,AL,36109
917653,903 Burton Avenue,Louisville,KY,40208
199445,1819 Q Street Southeast,Washington,DC,20020
811553,61 Hills Street,Manchester,CT,06040
230444,6000 Parker Drive,Deale,MD,20751
860760,940 Ironwood Drive,Montgomery,AL,36117
239539,110 Castle Hill,Manchester,CT,06040
974965,2527 Lisenby Avenue,Panama City,FL,32405
351130,2811 Battery Place Northwest,Washington,DC,20016
316759,52 Oleary Drive,Manchester,CT,06040
486041,3729 East Mission Boulevard,Fayetteville,AR,72703
514147,61 Callahan Way,Mammoth Lakes,CA,93546
592447,17361 Baronoff Avenue,Anchorage,AK,99577
791939,6073 Harlan Street,Arvada,CO,80003
134217,128 East Oak Street,Louisville,KY,40203
901581,16 Fuller Street,Brookline,MA,02446
514760,661 West Corinth Road,Washington,VT,05675
952383,5430 Brookdale Avenue,Oakland,CA,94619
917469,3114 US Highway 98,Mexico Beach,FL,32456
868717,95 Central Street,Springfield,MA,01105
695966,9912 Shirewick Way,Louisville,KY,40272
632297,20241 North 67th Avenue,Glendale,AZ,85308
745083,2909 Flamstead Road,Chester,VT,05143
310164,683 North Wilson Avenue,Fayetteville,AR,72701
432857,5116 Emmanuel Avenue,Anchorage,AK,99508
400099,510 Leeanne Drive,Nashville,TN,37211
693376,3100 Gentilly Court,Montgomery,AL,36116
802190,4328 Brewer Road,Montgomery,AL,36108
773296,131 Westerly Street,Manchester,CT,06042
520723,7701 Southwest 104th Street,Oklahoma City,OK,73169
880046,1275 South Holland Drive,Fayetteville,AR,72704
622414,6911 Steven Road,Panama City,FL,32404
751549,1120 Mitchell Young Road,Montgomery,AL,36108
741096,95 Westbourne Way,Pooler,GA,31322
341161,72 Milford Road,Manchester,CT,06042
815772,7453 West Melinda Lane,Glendale,AZ,85308
457833,11 Proctor Circle,Peabody,MA,01960
256018,1780 Poplar Ridge Road,Pasadena,MD,21122
513697,435 Granite Street,Quincy,MA,02169
786236,3373 Runnymede Place Northwest,Washington,DC,20015
252212,88 Shute Street,Everett,MA,02149
325336,34 Holyoke Road,Manchester,CT,06040
463646,5311 Chenoweth Park Lane,Louisville,KY,40291
834189,3642 Chatsworth Road,Fayetteville,AR,72703
692037,7804 Abercorn Street,Savannah,GA,31406
772021,7431 Gilbert Road,Panama City,FL,32404
183887,3162 Martin Luther King Junior Boulevard,Fayetteville,AR,72704
229632,11256 Palos Verdes Court,Cupertino,CA,95014
388640,26 Battery Drive,Tybee Island,GA,31328
672878,5124 E Street Southeast,Washington,DC,20019
113089,621 Northwest 94th Street,Oklahoma City,OK,73114
764669,201 Lee Boulevard,Savannah,GA,31405
736643,6060 West Royal Palm Road,Glendale,AZ,85302
321543,750 West Dimond Boulevard,Anchorage,AK,99515
854319,34 Main Street,Gardner,MA,01440
231883,9904 Daniel Drive,Louisville,KY,40118
632912,86 Highland Street,Manchester,CT,06040
375400,112 Cherokee Road,Nashville,TN,37205
434046,1990 Poplar Ridge Road,Pasadena,MD,21122
811708,2905 Stonebridge Court,Norman,OK,73071
859386,5118 Augusta Road,Garden City,GA,31408
367954,2335 Orchard View Lane,Escondido,CA,92027
307300,43 Westminster Street,Pittsfield,MA,01201
536654,2305 Ranchland Drive,Savannah,GA,31404
908722,8101 Vaughn Road,Montgomery,AL,36117
800071,1850 Berryhill Place,Montgomery,AL,36117
625645,1709 Vineyard Trail,Annapolis,MD,21401
611545,185 Longview Road,West Tisbury,MA,02568
744180,2327 Pomeroy Road Southeast,Washington,DC,20020
895475,6216 West Bloomfield Road,Glendale,AZ,85304
706600,382 Ocean Avenue,Revere,MA,02151
158889,36 Saint Ives Drive,Savannah,GA,31419
741620,264 River Road,Richmond,VT,05477
692625,12460 West Solano Drive,Litchfield Park,AZ,85340
385019,7772 West Palmaire Avenue,Glendale,AZ,85303
431291,2140 East 56th Avenue,Anchorage,AK,99507
932431,33655 5th Street,Union City,CA,94587
479661,3801 North Ann Arbor Place,Oklahoma City,OK,73122
486704,3440 Brookhaven Road,Pasadena,MD,21122
882413,6231 North 59th Avenue,Glendale,AZ,85301
470627,269 Park Street,North Reading,MA,01864
117294,140 William Chambers Junior Drive,Glen Burnie,MD,21060
226790,132 Laurel Green Court,Savannah,GA,31419
614108,2811 Mechanics Avenue,Savannah,GA,31404
790917,7300 West 74th Place,Arvada,CO,80003
189529,225 Almond Street,Fall River,MA,02721
651098,1403 Lincoln Street,Savannah,GA,31401
428393,2400 Easy Street,San Leandro,CA,94578
412526,606 Lincoln Street,Savannah,GA,31401
311905,8800 Cordell Circle,Anchorage,AK,99502
808323,116 Queens Lane,Nashville,TN,37218
538739,516 Southwest 60th Terrace,Oklahoma City,OK,73139
821887,1631 Madison Avenue,Montgomery,AL,36107
110346,4024 Northwest 16th Street,Oklahoma City,OK,73107
223917,54 Pine Meadow Drive,Hyde Park,VT,05655
743176,604 Northwest 118th Street,Oklahoma City,OK,73114
834245,188 Saint Matthews Avenue,Louisville,KY,40207
931414,7192 West Topeka Drive,Glendale,AZ,85308
727166,2707 Eden Street,Nashville,TN,37208
196100,6917 Briarcreek Drive,Oklahoma City,OK,73162
304045,302 Black Sky Lane,Pasadena,MD,21122
623331,106 Parker Parkway,Mexico Beach,FL,32456
417115,6 Sawmill Lane,Westford,VT,05494
316760,424 North Powderhorn Drive,Fayetteville,AR,72704
184200,269 Hugh Thomas Drive,Panama City,FL,32404
469140,310 12th Avenue,Santa Cruz,CA,95062
812394,3098 Vermont 122,Sheffield,VT,05866
415391,6941 West 87th Way,Arvada,CO,80003
422347,3538 Albemarle Street Northwest,Washington,DC,20008
754995,62 High Street,Manchester,CT,06040
895528,1324 Beddington Park,Nashville,TN,37215
962642,8886 West 77th Circle,Arvada,CO,80005
831581,26334 Adrian Avenue,Hayward,CA,94545
700228,938 Elkridge Landing Road,Linthicum Heights,MD,21090
471240,350 Lydall Street,Manchester,CT,06042
530007,7564 Moore Court,Arvada,CO,80005
506307,1 Portsmouth Road,Piedmont,CA,94610
735624,7947 Citadel Drive,Severn,MD,21144
915519,2400 Merry Street,Nashville,TN,37208
514112,8474 Chase Drive,Arvada,CO,80003
693374,3784 Milky Way Drive,Anchorage,AK,99517
856110,1100 West Bowen Boulevard,Fayetteville,AR,72703
759064,6234 West 68th Circle,Arvada,CO,80003
162098,63 Wild Thistle Lane,Savannah,GA,31406
181659,65 Lowry Road,Falmouth,MA,02540
482386,1011 San Jose Street,San Leandro,CA,94577
767616,19 Murray Road,Essex,VT,05452
526162,7 Underwood Place Northwest,Washington,DC,20012
204204,517 Glenpark Drive,Nashville,TN,37217
841649,69 Washington Street,Manchester,CT,06042
713633,1770 Colony Way,Fayetteville,AR,72704
190965,631 North Eastern Boulevard,Montgomery,AL,36117
222372,17878 Front Beach Road,Panama City Beach,FL,32413
475329,2375 Palm Lake Drive,Merritt Island,FL,32952
442068,1340 5th Street Northwest,Washington,DC,20001
514396,5403 Illinois Avenue,Nashville,TN,37209
713118,8121 Copper Creek Drive,Lyndon,KY,40222
482930,880 H Street,Anchorage,AK,99501
484455,10129 Spring Gate Drive,Louisville,KY,40241
863375,61 Plymouth Lane,Manchester,CT,06040
915518,200 Edson Road,Windham,VT,05359
322010,2079 Nashboro Boulevard,Nashville,TN,37217
136607,10763 West 54th Place,Arvada,CO,80002
928418,4594 Champagne Drive,Fayetteville,AR,72703
364052,1960 Sigfrid Court,Annapolis,MD,21401
437274,4712 Cherokee Heights Road,Panama City,FL,32404
887889,3324 Valley Lee South,Laurel,MD,20724
610659,7350 West Wedington Drive,Fayetteville,AR,72704
927882,2106 Standard Avenue,Louisville,KY,40210
571896,715 36.1 Road,Palisade,CO,81526
164109,65 Jones Lane,Montevallo,AL,35115
359348,2417 Becker Place,Del City,OK,73115
441510,1804 Calhoun Avenue,Panama City,FL,32405
609253,4463 Cato Road,Nashville,TN,37218
242113,95 Forest Avenue,Brockton,MA,02301
917928,840 River Crest Court,Louisville,KY,40206
231652,970 Old Oak Road,Livermore,CA,94550
367815,228 Wood Street,New Bedford,MA,02745
673921,3 Emery Hill Drive,Dummerston,VT,05301
535933,10891 Kamishak Bay Circle,Anchorage,AK,99515
889975,406 Stilz Avenue,Louisville,KY,40206
328411,653 Stratton Arlington Road,Stratton,VT,05360
965564,1701 Foster Avenue,Panama City,FL,32405
112379,1013 Balboa Avenue,Capitola,CA,95010
121443,115 Home Avenue,Burlington,VT,05401
355708,1250 Pram Place,Annapolis,MD,21403
836961,21402 Caribbean Lane,Panama City Beach,FL,32413
272372,1478 Sharps Point Road,Annapolis,MD,21409
165364,7034 West John Garrison Road,Fayetteville,AR,72704
831357,733 East DeRenne Avenue,Savannah,GA,31405
488516,817 25th Street Northwest,Washington,DC,20037
940170,6754 Field Street,Arvada,CO,80004
664735,1819 14th Avenue,Nashville,TN,37208
292332,106 Varnum Street Northwest,Washington,DC,20011
442166,19091 Northeast 23rd Street,Harrah,OK,73045
229808,13531 West 72nd Drive,Arvada,CO,80005
114411,800 California 116,Sebastopol,CA,95472
432385,3100 Don Juan Court,Montgomery,AL,36110
977746,49 West Street,Bolton,VT,05676
231143,6208 Ingalls Street,Arvada,CO,80003
697983,208 Waterford Drive,Lynn Haven,FL,32444
702483,6821 Northwest 25th Street,Bethany,OK,73008
290375,894 Windmill Park Lane,Mountain View,CA,94043
344170,6401 Green Meadow Lane,Oklahoma City,OK,73132
384794,2622 Martin Luther King Junior Boulevard,Fayetteville,AR,72704
716787,158 Euclid Avenue,San Leandro,CA,94577
199574,232 Maine Avenue,Panama City,FL,32401
400942,1810 Orchard Place,Anchorage,AK,99502
809858,8378 Cole Street,Arvada,CO,80005
639287,145 Saint John Street,Manchester,CT,06040
963955,1815 Grove Hill Lane,Montgomery,AL,36106
238421,347 Brewer Drive,Nashville,TN,37211
731261,29104 Quartz Lane,Tollhouse,CA,93667
305650,8202 4 Winds Drive,Lyndon,KY,40222
127220,190 High Street,Medford,MA,02155
763203,981 Groton Long Point Road,Groton,CT,06340
993740,20000 North 57th Avenue,Glendale,AZ,85308
591851,565 Amber Isle,Alameda,CA,94501
468553,2169 Barre Road,Hubbardston,MA,01452
428827,305 Brookside Court,Manchester,CT,06042
456243,8 Chestnut Street,Winchester,MA,01890
702672,188 River Road,Essex,VT,05452
563715,10 Tel Road,Woodford,VT,05201
445484,4125 Cobia Street,Panama City,FL,32408
627121,6611 5th Street Northwest,Washington,DC,20012
348709,4500 Margalo Avenue,Bakersfield,CA,93313
152281,162 Wells Street,Manchester,CT,06040
384689,465 Humboldt Way,Livermore,CA,94551
307860,4728 Rockland Trail,Nashville,TN,37013
772832,932 Northwest 20th Street,Moore,OK,73160
737914,1265 Xavier Avenue,Hayward,CA,94545
165781,3301 Old Muldoon Road,Anchorage,AK,99504
158250,4725 Royal Oak Drive,Oklahoma City,OK,73135
159602,1007 Ash Street,Louisville,KY,40217
646934,8467 Chase Drive,Arvada,CO,80003
372558,6451 West Bell Road,Glendale,AZ,85308
763549,5788 Cane Ridge Road,Nashville,TN,37013
167849,185 Woodlawn Road,Burlington,VT,05408
498949,2311 West Lawson Street,Fayetteville,AR,72703
898018,915 Heath Drive,Montgomery,AL,36108
957273,6739 Taft Court,Arvada,CO,80004
872204,6518 Dolphin Court,Glen Burnie,MD,21061
365018,809 Blue Ridge Drive,Edmond,OK,73003
734441,355 Gillette Road,Nashville,TN,37211
116397,20375 Wisteria Street,Castro Valley,CA,94546
977878,6342 Kendall Street,Arvada,CO,80003
391894,3526 Sutton Loop,Fremont,CA,94536
146534,7622 Vance Drive,Arvada,CO,80003
604850,3302 Woodland Park Drive,Anchorage,AK,99517
338666,6057 Griffith Avenue,Linda,CA,95901
575397,2203 West 24th Street,Panama City,FL,32405
238346,5725 Medallion Court,Castro Valley,CA,94552
282986,2027 North Shannon Drive,Fayetteville,AR,72703
831664,2505 Southwest 43rd Street,Oklahoma City,OK,73119
246285,208 Timrod Road,Manchester,CT,06040
941837,11 Rosewood Lane,Essex,VT,05452
802914,6473 Zephyr Street,Arvada,CO,80004
969814,2 Misty Marsh Drive,Savannah,GA,31419
851273,6086 Kennedy Drive,Fayetteville,AR,72704
686343,8716 Astrid Avenue,Louisville,KY,40228
770578,8380 Lockwood Road,Pasadena,MD,21122
894871,6007 Yarrow Street,Arvada,CO,80004
314104,425 Buckhalter Road,Savannah,GA,31405
272107,910 Arlington Terrace,Fayetteville,AR,72701
277699,8432 West 78th Circle,Arvada,CO,80005
636383,8800 Northwest 92nd Street,Oklahoma City,OK,73132
926226,1403 12th Street Northwest,Washington,DC,20005
382581,276 Adams Street,Quincy,MA,02169
281655,8401 Pinewood Drive,Oklahoma City,OK,73135
155443,143 Main Street,Manchester,CT,06042
136887,8010 Holland Court,Arvada,CO,80005
257159,1217 Bay Street,Tybee Island,GA,31328
516107,169 Wachusett Street,Holden,MA,01520
399440,2130 Winona Avenue,Montgomery,AL,36107
409453,607 Trails End Road,Manchester,CT,06042
467714,4709 Blagden Terrace Northwest,Washington,DC,20011
419127,5397 Wentworth Avenue,Oakland,CA,94601
879002,4423 Lilac Avenue,Savannah,GA,31404
810298,2334 Nantucket Drive,Crofton,MD,21114
323093,12 Kane Road,Manchester,CT,06040
568387,905 Richardson Vista Road,Anchorage,AK,99501
841577,1257 John Street,Nashville,TN,37210
348073,2433 Southwest 36th Street,Oklahoma City,OK,73109
143766,223 Main Street,Nashville,TN,37213
651604,6214 Herzog Street,Oakland,CA,94608
824902,4503 North Council Road,Bethany,OK,73008
118115,6748 West San Juan Avenue,Glendale,AZ,85303
512887,1840 Nobel Place,Louisville,KY,40216
890724,565 North Lakeshore Drive,Panama City Beach,FL,32413
573078,73 Lower Main Street,Morristown,VT,05661
704426,2577 East Wyman Road,Fayetteville,AR,72701
404258,149 Lenox Street,Manchester,CT,06040
493678,3820 North Peniel Avenue,Bethany,OK,73008
916454,86 Pine Street,Cambridge,MA,02139
869321,301 Willow Way,Lynn Haven,FL,32444
809327,17 Gregory Street,Middleton,MA,01949
281897,4385 Wares Ferry Road,Montgomery,AL,36109
163535,1809 U.S. 80,Savannah,GA,31408
735262,19416 Barclay Road,Castro Valley,CA,94546
981475,17109 Guava Avenue,Panama City Beach,FL,32413
755340,1026 Orchard Avenue,Louisville,KY,40213
428685,10406 Sunlight Lane,Louisville,KY,40272
692539,1247 West Mount Comfort Road,Fayetteville,AR,72703
252524,1732 27th Avenue,Oakland,CA,94601
488184,222 Holiday Circle,Savannah,GA,31419
750508,5024 West Christy Drive,Glendale,AZ,85304
316522,6716 South Mariposa Lane,Dublin,CA,94568
783910,105 Gilmore Street,Glen Burnie,MD,21061
603794,435 Benita Drive,Nashville,TN,37211
249305,10774 West 54th Lane,Arvada,CO,80002
679805,1320 Huffman Park Drive,Anchorage,AK,99515
244061,121 Mills Run Drive,Savannah,GA,31405
885141,1054 Overton Lea Road,Nashville,TN,37220
505665,1001 6th Street Northwest,Washington,DC,20001
784099,5631 West Colter Street,Glendale,AZ,85301
941803,50 Winthrop Avenue,Lawrence,MA,01843
460050,77 Gerald Drive,Manchester,CT,06040
788650,204 North Holt Street,Montgomery,AL,36104
730632,523 10th Street,Greeley,CO,80631
281193,1430 East Audubon Road,Montgomery,AL,36111
448518,629 Cutter Court,Annapolis,MD,21401
898971,2505 Walker Lane,Nashville,TN,37207
729389,189 Danforth Street,Framingham,MA,01701
962623,3819 Vineyard Avenue,Pleasanton,CA,94566
247323,4235 Phelan Court,Montgomery,AL,36116
799272,57413 Taku Avenue,Homer,AK,99603
103643,2927 Leatherwood Drive,Nashville,TN,37214
972175,58 North Cove Road,Burlington,VT,05408
635123,16910 Alpine Drive,Pioneer,CA,95666
110016,249 Yellow Leaf Circle,Anchorage,AK,99504
293920,7187 Holland Court,Arvada,CO,80005
471904,78 School Street,Woburn,MA,01801
518894,6617 North 59th Avenue,Glendale,AZ,85301
387531,4540 Phyllis Court,Livermore,CA,94550
624124,7111 North 75th Avenue,Glendale,AZ,85303
317030,1401 Cordova Street,Anchorage,AK,99501
352626,49548 Road 200,O Neals,CA,93645
751972,601 Farragut Place Northeast,Washington,DC,20017
745454,8040 Cranberry Street,Anchorage,AK,99502
263212,257 Broadway,Lynn,MA,01904
142266,6221 West Wethersfield Road,Glendale,AZ,85304
293664,1622 Edgar D Nixon Avenue,Montgomery,AL,36104
529962,5921 Ashwood Bluff Drive,Louisville,KY,40207
330056,2604 13th Street,Savannah,GA,31408
746198,19 Heritage,Oakland,CA,94605
551823,620 Oakland Avenue,Fayetteville,AR,72701
123806,6145 East Castro Valley Boulevard,Castro Valley,CA,94552
184250,644 West Maple Street,Fayetteville,AR,72701
915281,3365 Wyndham Drive,Fremont,CA,94536
272580,4672 A Street Southeast,Washington,DC,20019
447965,211 West Oak Street,Louisville,KY,40203
378630,5801 South Watterson Trail,Louisville,KY,40291
102401,6069 Jay Street,Arvada,CO,80003
700361,16896 West 85th Lane,Arvada,CO,80007
202119,3027 Badger Drive,Pleasanton,CA,94566
699637,10340 West 62nd Place,Arvada,CO,80004
483295,9506 Civic Way,Prospect,KY,40059
399852,533 Forest Ridge Court,Montgomery,AL,36109
503753,3426 Broadview Street,Montgomery,AL,36110
632080,17722 North 79th Avenue,Glendale,AZ,85308
112632,3825 West Muhammad Ali Boulevard,Louisville,KY,40212
774597,3521 Stargate Circle,Anchorage,AK,99517
576922,3102 Kinvara Lane,Louisville,KY,40242
502368,8001 East 6th Avenue,Anchorage,AK,99504
319525,9 Kimball Court,Burlington,MA,01803
206257,6606 North 52nd Drive,Glendale,AZ,85301
984805,1245 Southwest 31st Street,Oklahoma City,OK,73109
248359,180 Center Street,Manchester,CT,06040
386344,13426 North 54th Drive,Glendale,AZ,85304
112020,242 North Ash Street,Fruita,CO,81521
553196,10508 Kovats Court,Louisville,KY,40223
625690,6081 Jay Street,Arvada,CO,80003
295858,615 Q Street Northwest,Washington,DC,20001
747496,2310 Donleigh Court,Louisville,KY,40222
277287,10332 Thuja Circle,Anchorage,AK,99507
284313,3313 Daisy Trail,Nashville,TN,37013
446542,10151 West 64th Avenue,Arvada,CO,80004
413855,5 Irving Street,Easthampton,MA,01027
430012,70 East Terrace,South Burlington,VT,05403
779191,82 The Commons,Moretown,VT,05660
616990,8404 South Villa Avenue,Oklahoma City,OK,73159
965833,15253 North 62nd Avenue,Glendale,AZ,85306
775274,1505 Sweet Bay Trail,Panama City Beach,FL,32413
388102,3114 West 20th Court,Panama City,FL,32405
353741,4360 Hagan Road,Montgomery,AL,36109
196292,14 Huntington Street,Manchester,CT,06040
503320,2515 60th Avenue,Oakland,CA,94605
754257,159 North Pawlet Road,Pawlet,VT,05761
254955,241 Methuen Street,Lowell,MA,01850
658751,12300 Apache Avenue,Savannah,GA,31419
804076,7030 Cotton Blossom Lane,Montgomery,AL,36117
905511,8595 West 81st Drive,Arvada,CO,80005
783915,18713 Shilstone Way,Edmond,OK,73012
281564,3340 Woodpark Drive,Montgomery,AL,36116
653361,1309 Graniteville Road,Williamstown,VT,05679
362103,6049 Quail Street,Arvada,CO,80004
950782,3300 Crystal Road,Montgomery,AL,36110
926213,6500 Thurlow Place,Edmond,OK,73034
625926,2100 North Leverett Avenue,Fayetteville,AR,72703
565716,2643 North Sierra Avenue,Fayetteville,AR,72703
860729,301 East Court,Savannah,GA,31404
327358,1313 Southwest 14th Street,Oklahoma City,OK,73108
361799,513 10th Street Southeast,Washington,DC,20003
590551,521 McGregor Court,Montgomery,AL,36117
401969,228 Central Street,Milford,MA,01757
639803,1707 6th Street Northwest,Washington,DC,20001
292584,1513 Southeast 9th Street,Moore,OK,73160
467194,10802 Brickside Court,Riverview,FL,33579
518451,918 Cheryl Ann Circle,Hayward,CA,94544
732005,18117 Muldrow Street,Anchorage,AK,99577
387985,28250 Dickens Avenue,Hayward,CA,94544
874034,1689 Fisher Pond Road,Saint Albans City,VT,05478
156908,6114 West Glenn Drive,Glendale,AZ,85301
197316,129 Lark Lane,Farmington,AR,72730
614529,7901 West 52nd Avenue,Arvada,CO,80002
225272,4513 Beth Manor Drive,Montgomery,AL,36109
562982,3 Carson Street,Chico,CA,95928
884458,172 Chestnut Street,Lynn,MA,01902
931965,108 Croft Drive,Manchester,CT,06042
865984,7202 Jump Street,Youngstown,FL,32466
833600,1700 William E Summers III Avenue,Louisville,KY,40211
383888,1711 Lore Road,Anchorage,AK,99507
760680,1211 Friendship Avenue,Panama City,FL,32401
582555,1413 G Street,Anchorage,AK,99501
889721,Tyndall Drive,Tyndall Air Force Base,FL,32403
169691,90 Via Verde,San Lorenzo,CA,94580
403827,36528 Short Circle,Kenai,AK,99611
330465,1828 Ridgewick Road,Glen Burnie,MD,21061
415527,2205 Lindell Avenue,Nashville,TN,37204
178551,235 Hugh Thomas Drive,Panama City,FL,32404
189968,1753 Carswell Court,Suisun City,CA,94585
922919,2755 Country Drive,Fremont,CA,94536
121772,6604 North 59th Avenue,Glendale,AZ,85301
809520,6932 West Montebello Avenue,Glendale,AZ,85303
663460,4940 Fuller Road,Montgomery,AL,36110
468396,6601 North 62nd Avenue,Glendale,AZ,85301
421016,2835 Jed Road,Escondido,CA,92027
270851,28 Wayne Avenue,Waltham,MA,02453
652822,400 US Highway 98,Mexico Beach,FL,32456
191476,43 Main Street,Essex,VT,05452
215026,8300 Dover Way,Arvada,CO,80005
165653,11933 West 71st Avenue,Arvada,CO,80004
197730,20 Dearborn Drive,Manchester,CT,06042
425259,3118 Sora Avenue,Louisville,KY,40213
671473,2700 Verona Way,Edmond,OK,73034
579063,628 Ayrlie Water Road,Gibson Island,MD,21056
546695,368 Winthrop Court,Montgomery,AL,36104
199096,1521 159th Avenue,San Leandro,CA,94578
930251,12420 West Montebello Avenue,Litchfield Park,AZ,85340
960116,2 Ambelwood Way,Savannah,GA,31411
198254,854 Cherry Trail,Crownsville,MD,21032
902807,1117 Everett Avenue,Louisville,KY,40204
814735,9360 Hester Beasley Road,Nashville,TN,37221
243582,7071 Senators Drive,Montgomery,AL,36117
842682,12002 Vanherr Drive,Louisville,KY,40299
436494,107 Laurel Green Court,Savannah,GA,31419
328099,1513 Cathy Street,Savannah,GA,31415
186879,30451 Servilla Place,Castaic,CA,91384
549861,7703 Aragorn Court,Hanover,MD,21076
216382,634 Chautauqua Avenue,Norman,OK,73069
880952,5264 Shafter Avenue,Oakland,CA,94618
126025,4911 Alameda Street,Panama City,FL,32404
242606,8505 Waters Avenue,Savannah,GA,31406
643011,4246 Ray Drive,Montgomery,AL,36109
108740,10700 South Pennsylvania Avenue,Oklahoma City,OK,73170
159965,6604 Northwest 130th Street,Oklahoma City,OK,73142
426906,88 Florence Street,New Bedford,MA,02740
139012,3701 Lake Towne Drive,Nashville,TN,37013
180610,314 South 17th Street,Nashville,TN,37206
337095,16020 North 69th Avenue,Peoria,AZ,85382
519000,880 General George Patton Road,Nashville,TN,37221
578356,1865 North Higley Road,Mesa,AZ,85205
183811,3030 Breckenridge Lane,Louisville,KY,40220
894171,6241 Hudson Creek Drive,Louisville,KY,40291
465778,302 Depot Road,Boxborough,MA,01719
424607,1008 Rhode Island Avenue Northwest,Washington,DC,20001
791126,1416 Ridgewood Avenue,Panama City,FL,32404
210968,714 Venetian Way,Panama City,FL,32405
740764,562 South Pierremont Drive,Fayetteville,AR,72701
584133,7232 West Melinda Lane,Glendale,AZ,85308
846358,2317 Fernwood Drive,Nashville,TN,37216
314128,2201 Marks Mill Lane,Fayetteville,AR,72703
758080,20443 Granite Park Circle,Anchorage,AK,99577
999466,3600 San Sebastian Court,Punta Gorda,FL,33950
700167,1930 Churchview Court,Millersville,MD,21108
101865,8390 Alkire Street,Arvada,CO,80005
211486,1515 Northwest 19th Street,Oklahoma City,OK,73106
693193,135 Northshore Drive,Burlington,VT,05408
441518,30 Windermere Drive,Agawam,MA,01030
222355,1004 Bellflower Street,Livermore,CA,94551
682845,8221 Surf Drive,Panama City,FL,32408
718590,2732 West 67th Avenue,Anchorage,AK,99502
487984,103 Aspen Place Northeast,Calhoun,GA,30701
365028,175 Creek Road,Castleton,VT,05735
738533,736 Middle Turnpike East,Manchester,CT,06040
715437,412 West Ila Street,Fayetteville,AR,72701
447997,312 North Cove Boulevard,Panama City,FL,32401
691984,2641 Heather Lane,Redding,CA,96002
622876,10110 Landwood Drive,Louisville,KY,40291
224435,2631 Northrup Place,Anchorage,AK,99508
962897,100 Birney Street,Peabody,MA,01960
912970,600 West 19th Avenue,Anchorage,AK,99503
402426,2732 Humboldt Avenue,Oakland,CA,94602
403149,110 Carraway Lane,Annapolis,MD,21401
253513,3388 Thomasson Lane,Fairfield,CA,94534
110473,38 Renwick Road,Melrose,MA,02176
183269,5113 Southeast 51st Street,Oklahoma City,OK,73135
724999,7703 Laird Street,Panama City,FL,32408
576540,717 Joseph Avenue,Nashville,TN,37207
293949,1404 James Way,Edgewater,MD,21037
611809,8820 Culebra Street,Arvada,CO,80007
995921,5 Meadow Lane,Rutland,VT,05701
461574,142 Ash Drive,Montgomery,AL,36117
423243,3605 Normandy Place South,Nashville,TN,37209
819818,214 South End Road,Mount Tabor,VT,05739
173177,12 Knox Street,Manchester,CT,06040
979357,7550 Kline Drive,Arvada,CO,80005
181307,639 Saltzman Road,Severna Park,MD,21146
901157,1726 Bridgeview Lane,Lyndon,KY,40242
702786,31353 Santa Elena Way,Union City,CA,94587
667088,35 Lakewood Circle South,Manchester,CT,06040
396841,109 High Street,Manchester,CT,06040
800321,4822 Piney Branch Road Northwest,Washington,DC,20011
944016,31770 Alvarado Boulevard,Union City,CA,94587
391875,144 Lauderdale Street,Montgomery,AL,36116
512434,10723 Colonial Woods Court,Louisville,KY,40223
891562,5600 Carmichael Road,Montgomery,AL,36117
745290,996 Ed Noble Parkway,Norman,OK,73072
878690,8064 Claytie Circle,Nashville,TN,37221
877977,325 Autumn Street,Manchester,CT,06040
579081,1427 South Carolina Avenue Southeast,Washington,DC,20003
726806,180 Intervale Avenue,Burlington,VT,05401
812453,864 Main Street,Worcester,MA,01610
227156,10638 Happyville Road,Youngstown,FL,32466
572079,3321 Furman Boulevard,Louisville,KY,40220
395253,2375 South School Avenue,Fayetteville,AR,72701
661581,4537 Tanglewood Trail,Boulder,CO,80301
532756,5157 West Kerry Lane,Glendale,AZ,85308
269172,7057 Old Southwick Place,Montgomery,AL,36117
967589,682 Brighton Way,Livermore,CA,94551
946974,20228 Crabtree Street,Anchorage,AK,99567
248943,7711 North 51st Avenue,Glendale,AZ,85301
622553,819 Beazer Lane,Nashville,TN,37013
964003,904 Walthour Road,Savannah,GA,31410
612726,1514 Canton Avenue,Milton,MA,02186
753652,16412 Eastwood Cut Off Road,Louisville,KY,40245
332822,4 Village Lake Drive,Fayetteville,AR,72703
839604,5634 Kipling Parkway,Arvada,CO,80002
292322,15 Taft Street,Quincy,MA,02169
166173,6717 North 59th Avenue,Glendale,AZ,85301
426694,4418 Signal Hill Road,Louisville,KY,40207
744493,151 Main Street,Savannah,GA,31408
915956,25 Wendys Way,Harwich,MA,02645
590986,173 Spruce Street,Manchester,CT,06040
266756,12 Winter Street,Manchester,CT,06040
276778,5396 North Reese Avenue,Fresno,CA,93722
293647,4112 Rockdale Street,Savannah,GA,31405
626851,6672 Urban Court,Arvada,CO,80004
165510,4109 General Bate Drive,Nashville,TN,37204
549202,8041 Elton Street,Glen Burnie,MD,21060
855308,2750 Gilmore Lane,Oroville,CA,95966
737887,102 Hayes Drive,Pooler,GA,31322